{"version": 0.6, "generator": "Overpass API 0.7.62.5 1bd436f1", "osm3s": {"timestamp_osm_base": "2025-03-20T00:09:10Z", "copyright": "The data included in this document is from www.openstreetmap.org. The data is made available under ODbL."}, "elements": [{"type": "node", "id": 172522965, "lat": 35.4868754, "lon": 139.6541635, "tags": {"name": "\u65b0\u5b50\u5b89", "name:en": "Shin-Koyasu", "name:ja": "\u65b0\u5b50\u5b89", "name:ja_kana": "\u3057\u3093\u3053\u3084\u3059", "name:ja_rm": "Shin-Koyasu", "name:ko": "\uc2e0\ucf54\uc57c\uc2a4", "name:ru": "\u0421\u0438\u043d-\u041a\u043e\u044f\u0441\u0443", "operator": "\u6771\u65e5\u672c\u65c5\u5ba2\u9244\u9053", "public_transport": "station", "railway": "station", "wikidata": "Q128314", "wikipedia": "ja:\u65b0\u5b50\u5b89\u99c5"}}, {"type": "node", "id": 263267206, "lat": 35.3543087, "lon": 139.5314325, "tags": {"KSJ2:LIN": "\u6a2a\u9808\u8cc0\u7dda", "KSJ2:STN": "\u5927\u8239", "name": "\u5927\u8239", "name:de": "\u014cfuna", "name:en": "\u014cfuna", "name:fr": "\u014cfuna", "name:it": "Ofuna", "name:ja-Hira": "\u304a\u304a\u3075\u306a", "name:ja-Latn": "Ofuna", "name:ru": "\u041e\u0444\u0443\u043d\u0430", "public_transport": "station", "railway": "station", "wikidata": "Q1143863", "wikipedia": "ja:\u5927\u8239\u99c5"}}, {"type": "node", "id": 263271899, "lat": 35.4846434, "lon": 139.6451231, "tags": {"gauge": "1435", "name": "\u5b50\u5b89", "name:en": "Koyasu", "name:es": "Koyasu", "name:ja": "\u5b50\u5b89", "name:ja_kana": "\u3053\u3084\u3059", "name:ja_rm": "Koyasu", "name:ko": "\uace0\uc57c\uc2a4", "operator": "\u4eac\u6d5c\u6025\u884c\u96fb\u9244", "operator:en": "Keikyu Corporation", "operator:ja": "\u4eac\u6d5c\u6025\u884c\u96fb\u9244", "public_transport": "station", "railway": "station", "ref": "KK33", "source": "Bing", "source_ref": "http://nlftp.mlit.go.jp/ksj/jpgis/datalist/KsjTmplt-N02-v1_1.html", "wikidata": "Q6435147", "wikipedia": "ja:\u5b50\u5b89\u99c5"}}, {"type": "node", "id": 263274493, "lat": 35.4814272, "lon": 139.6399999, "tags": {"gauge": "1435", "name": "\u795e\u5948\u5ddd\u65b0\u753a", "name:en": "Kanagawa-shimmachi", "name:ja": "\u795e\u5948\u5ddd\u65b0\u753a", "name:ja_kana": "\u304b\u306a\u304c\u308f\u3057\u3093\u307e\u3061", "name:ja_rm": "Kanagawa-shimmachi", "name:ko": "\uac00\ub098\uac00\uc640\uc2e0\ub9c8\uce58", "note": "National-Land Numerical Information (Railway) 2007, MLIT Japan", "operator": "\u4eac\u6d5c\u6025\u884c\u96fb\u9244 (Keikyu Corporation)", "operator:en": "Keikyu Corporation", "operator:ja": "\u4eac\u6d5c\u6025\u884c\u96fb\u9244", "public_transport": "station", "railway": "station", "ref": "KK34", "source": "Bing", "source_ref": "http://nlftp.mlit.go.jp/ksj/jpgis/datalist/KsjTmplt-N02-v1_1.html", "wikidata": "Q5368901", "wikipedia": "ja:\u795e\u5948\u5ddd\u65b0\u753a\u99c5"}}, {"type": "node", "id": 263274999, "lat": 35.4662066, "lon": 139.6231953, "tags": {"contact:website": "https://www.keikyu.co.jp/ride/kakueki/KK37.html", "gauge": "1435", "name": "\u6a2a\u6d5c", "name:en": "Yokohama", "name:es": "Yokohama", "name:ja": "\u6a2a\u6d5c", "name:ja-Kana": "\u3088\u3053\u306f\u307e", "name:ja-Latn": "Yokohama", "name:ko": "\uc694\ucf54\ud558\ub9c8", "note": "National-Land Numerical Information (Railway) 2007, MLIT Japan", "operator": "\u4eac\u6d5c\u6025\u884c\u96fb\u9244", "operator:en": "Keikyu Corporation", "operator:ja": "\u4eac\u6d5c\u6025\u884c\u96fb\u9244", "public_transport": "station", "railway": "station", "ref": "KK37", "source": "Bing", "source_ref": "http://nlftp.mlit.go.jp/ksj/jpgis/datalist/KsjTmplt-N02-v1_1.html", "wheelchair": "yes", "wikidata": "Q801658", "wikipedia": "ja:\u6a2a\u6d5c\u99c5"}}, {"type": "node", "id": 263275159, "lat": 35.4715259, "lon": 139.6275201, "tags": {"name": "\u795e\u5948\u5ddd", "name:en": "Kanagawa", "name:ja": "\u795e\u5948\u5ddd", "name:ja_kana": "\u304b\u306a\u304c\u308f", "name:ja_rm": "Kanagawa", "name:ko": "\uac00\ub098\uac00\uc640", "note": "National-Land Numerical Information (Railway) 2007, MLIT Japan", "public_transport": "station", "railway": "station", "ref": "KK36", "source": "KSJ2", "source_ref": "http://nlftp.mlit.go.jp/ksj/jpgis/datalist/KsjTmplt-N02-v1_1.html", "wheelchair": "limited", "wikidata": "Q5362069", "wikipedia": "ja:\u795e\u5948\u5ddd\u99c5"}}, {"type": "node", "id": 263298361, "lat": 35.3225918, "lon": 139.6112899, "tags": {"name": "\u516d\u6d66", "name:en": "Mutsuura", "name:ja": "\u516d\u6d66", "name:ja_kana": "\u3080\u3064\u3046\u3089", "name:ja_rm": "Mutsuura", "name:ko": "\ubb34\uc4f0\uc6b0\ub77c", "operator": "\u4eac\u6d5c\u6025\u884c\u96fb\u9244", "operator:en": "Keikyu Corporation", "operator:ja": "\u4eac\u6d5c\u6025\u884c\u96fb\u9244", "public_transport": "station", "railway": "station", "ref": "KK51", "source": "Bing", "source_ref": "http://nlftp.mlit.go.jp/ksj/jpgis/datalist/KsjTmplt-N02-v1_1.html", "wikidata": "Q11312859", "wikipedia": "ja:\u516d\u6d66\u99c5"}}, {"type": "node", "id": 264814064, "lat": 35.5182012, "lon": 139.6992892, "tags": {"name": "\u5ddd\u5d0e\u65b0\u753a", "name:en": "Kawasaki-Shimmachi", "name:ja": "\u5ddd\u5d0e\u65b0\u753a", "name:ja_kana": "\u304b\u308f\u3055\u304d\u3057\u3093\u307e\u3061", "name:ja_rm": "Kawasaki Shimmachi", "name:ko": "\uac00\uc640\uc0ac\ud0a4\uc2e0\ub9c8\uce58", "note": "National-Land Numerical Information (Railway) 2007, MLIT Japan", "operator": "\u6771\u65e5\u672c\u65c5\u5ba2\u9244\u9053", "public_transport": "station", "railway": "station", "source": "KSJ2", "source_ref": "http://nlftp.mlit.go.jp/ksj/jpgis/datalist/KsjTmplt-N02-v1_1.html", "wikidata": "Q6379722", "wikipedia": "ja:\u5ddd\u5d0e\u65b0\u753a\u99c5"}}, {"type": "node", "id": 266084129, "lat": 35.5428783, "lon": 139.5172312, "tags": {"name": "\u9752\u8449\u53f0", "name:en": "Aobadai", "name:ja": "\u9752\u8449\u53f0", "name:ja_kana": "\u3042\u304a\u3070\u3060\u3044", "name:ja_rm": "Aobadai", "name:ko": "\uc544\uc624\ubc14\ub2e4\uc774", "name:ru": "\u0410\u043e\u0431\u0430\u0434\u0430\u0439", "operator": "\u6771\u4eac\u6025\u884c\u96fb\u9244", "public_transport": "station", "railway": "station", "ref": "DT20", "source": "KSJ2", "train": "yes", "wheelchair": "yes", "wikidata": "Q857586", "wikipedia": "ja:\u9752\u8449\u53f0\u99c5"}}, {"type": "node", "id": 266084537, "lat": 35.5585746, "lon": 139.5514544, "tags": {"name": "\u6c5f\u7530", "name:en": "Eda", "name:ja": "\u6c5f\u7530", "name:ja-Hira": "\u3048\u3060", "name:ja-Latn": "Eda", "name:ko": "\uc5d0\ub2e4", "name:ru": "\u042d\u0434\u0430", "name:zh-Hans": "\u6c5f\u7530", "note": "National-Land Numerical Information (Railway) 2007, MLIT Japan", "operator": "\u6771\u6025\u96fb\u9244", "public_transport": "station", "railway": "station", "ref": "DT17", "source": "KSJ2", "train": "yes", "wheelchair": "yes", "wikidata": "Q5335639", "wikipedia": "ja:\u6c5f\u7530\u99c5 (\u795e\u5948\u5ddd\u770c)"}}, {"type": "node", "id": 280474787, "lat": 35.510947, "lon": 139.5670538, "tags": {"name": "\u9d28\u5c45", "name:en": "Kamoi", "name:ja": "\u9d28\u5c45", "name:ja-Hira": "\u304b\u3082\u3044", "name:ja-Latn": "Kamoi", "name:ko": "\uac00\ubaa8\uc774", "operator": "\u6771\u65e5\u672c\u65c5\u5ba2\u9244\u9053", "operator:en": "East Japan Railway Company", "public_transport": "station", "railway": "station", "ref": "JH18", "source": "KSJ2", "wikidata": "Q844702", "wikipedia": "ja:\u9d28\u5c45\u99c5"}}, {"type": "node", "id": 280474931, "lat": 35.5146971, "lon": 139.5395328, "tags": {"name": "\u4e2d\u5c71", "name:en": "Nakayama", "name:ja": "\u4e2d\u5c71", "name:ja-Hira": "\u306a\u304b\u3084\u307e", "name:ja-Latn": "Nakayama", "name:ko": "\ub098\uce74\uc57c\ub9c8", "operator": "\u6771\u65e5\u672c\u65c5\u5ba2\u9244\u9053", "operator:en": "East Japan Railway Company", "public_transport": "station", "railway": "station", "ref": "JH19", "source": "KSJ2", "train": "yes", "wikidata": "Q844670", "wikipedia": "ja:\u4e2d\u5c71\u99c5 (\u795e\u5948\u5ddd\u770c)"}}, {"type": "node", "id": 280474943, "lat": 35.4923774, "lon": 139.6462868, "tags": {"name": "\u5927\u53e3", "name:en": "Oguchi", "name:ja": "\u5927\u53e3", "name:ja-Hira": "\u304a\u304a\u3050\u3061", "name:ja-Latn": "\u014cguchi", "name:ko": "\uc624\uad6c\uce58", "operator": "\u6771\u65e5\u672c\u65c5\u5ba2\u9244\u9053", "public_transport": "station", "railway": "station", "ref": "JH14", "source": "KSJ2", "train": "yes", "wikidata": "Q801688", "wikipedia": "ja:\u5927\u53e3\u99c5"}}, {"type": "node", "id": 280475163, "lat": 35.5263056, "lon": 139.5165915, "tags": {"name": "\u5341\u65e5\u5e02\u5834", "name:en": "Tokaichiba", "name:ja": "\u5341\u65e5\u5e02\u5834", "name:ja_kana": "\u3068\u304a\u304b\u3044\u3061\u3070", "name:ja_rm": "T\u014dkaichiba", "name:ko": "\ub3c4\uce74\uc774\uce58\ubc14", "operator": "\u6771\u65e5\u672c\u65c5\u5ba2\u9244\u9053", "operator:en": "East Japan Railway Company", "public_transport": "station", "railway": "station", "ref": "JH20", "source": "KSJ2", "train": "yes", "wikidata": "Q844640", "wikipedia": "ja:\u5341\u65e5\u5e02\u5834\u99c5 (\u795e\u5948\u5ddd\u770c)"}}, {"type": "node", "id": 280475974, "lat": 35.5086932, "lon": 139.5997176, "tags": {"name": "\u5c0f\u673a", "name:en": "Kozukue", "name:ja": "\u5c0f\u673a", "name:ja-Hira": "\u3053\u3065\u304f\u3048", "name:ja-Latn": "Kozukue", "name:ko": "\uace0\uc988\ucfe0\uc5d0", "operator": "\u6771\u65e5\u672c\u65c5\u5ba2\u9244\u9053", "operator:en": "East Japan Railway Company", "public_transport": "station", "railway": "station", "ref": "JH17", "source": "KSJ2", "train": "yes", "wikidata": "Q909994", "wikipedia": "ja:\u5c0f\u673a\u99c5"}}, {"type": "node", "id": 280476284, "lat": 35.4779431, "lon": 139.6333271, "tags": {"name": "\u6771\u795e\u5948\u5ddd", "name:en": "Higashi-Kanagawa", "name:ja": "\u6771\u795e\u5948\u5ddd", "name:ja-Kana": "\u3072\u304c\u3057\u304b\u306a\u304c\u308f", "name:ja-Latn": "Higashi-kanagawa", "name:ko": "\ud788\uac00\uc2dc\uce74\ub098\uac00\uc640", "name:ru": "\u0425\u0438\u0433\u0430\u0441\u0438-\u041a\u0430\u043d\u0430\u0433\u0430\u0432\u0430", "operator": "\u6771\u65e5\u672c\u65c5\u5ba2\u9244\u9053", "public_transport": "station", "railway": "station", "ref": "JH13;JK13", "source": "KSJ2", "wheelchair": "yes", "wikidata": "Q128205", "wikimedia_commons": "File:JR Higashi-Kanagawa Station - 2023 March 14 various 20 01 39 301000.jpeg", "wikipedia": "ja:\u6771\u795e\u5948\u5ddd\u99c5"}}, {"type": "node", "id": 280728684, "lat": 35.3421054, "lon": 139.6359064, "tags": {"light_rail": "yes", "name": "\u6d77\u306e\u516c\u5712\u67f4\u53e3", "name:en": "Uminokoen-Shibaguchi", "name:es": "Uminokoen-Shibaguchi", "name:ja": "\u6d77\u306e\u516c\u5712\u67f4\u53e3", "name:ja_kana": "\u3046\u307f\u306e\u3053\u3046\u3048\u3093\u3057\u3070\u3050\u3061", "name:ja_rm": "Uminok\u014den shibaguchi", "name:ko": "\uc6b0\ubbf8\ub178\ucf54\uc5d4\uc2dc\ubc14\uad6c\uce58", "public_transport": "station", "railway": "station", "ref": "11", "source": "KSJ2", "source_ref": "http://nlftp.mlit.go.jp/ksj/jpgis/datalist/KsjTmplt-N02-v1_1.html", "station": "light_rail", "wikidata": "Q7881582", "wikipedia": "ja:\u6d77\u306e\u516c\u5712\u67f4\u53e3\u99c5"}}, {"type": "node", "id": 280728809, "lat": 35.3408226, "lon": 139.640836, "tags": {"light_rail": "yes", "name": "\u516b\u666f\u5cf6", "name:en": "Hakkeijima", "name:es": "Hakkeijima", "name:ja": "\u516b\u666f\u5cf6", "name:ja_kana": "\u306f\u3063\u3051\u3044\u3058\u307e", "name:ja_rm": "Hakkeijima", "name:ko": "\ud56b\ucf00\uc774\uc9c0\ub9c8", "public_transport": "station", "railway": "station", "ref": "10", "source": "KSJ2", "source_ref": "http://nlftp.mlit.go.jp/ksj/jpgis/datalist/KsjTmplt-N02-v1_1.html", "station": "light_rail", "wikidata": "Q5640543", "wikipedia": "ja:\u516b\u666f\u5cf6\u99c5"}}, {"type": "node", "id": 280728896, "lat": 35.3371661, "lon": 139.6320353, "tags": {"light_rail": "yes", "name": "\u6d77\u306e\u516c\u5712\u5357\u53e3", "name:en": "Uminokoen-Minamiguchi", "name:es": "Uminokoen-Minamiguchi", "name:ja": "\u6d77\u306e\u516c\u5712\u5357\u53e3", "name:ja_kana": "\u3046\u307f\u306e\u3053\u3046\u3048\u3093\u307f\u306a\u307f\u3050\u3061", "name:ja_rm": "Uminok\u014den minamiguchi", "name:ko": "\uc6b0\ubbf8\ub178\ucf54\uc5d4\ubbf8\ub098\ubbf8\uad6c\uce58", "public_transport": "station", "railway": "station", "ref": "12", "source": "KSJ2", "source_ref": "http://nlftp.mlit.go.jp/ksj/jpgis/datalist/KsjTmplt-N02-v1_1.html", "station": "light_rail", "wikidata": "Q7881587", "wikipedia": "ja:\u6d77\u306e\u516c\u5712\u5357\u53e3\u99c5"}}, {"type": "node", "id": 280728933, "lat": 35.3583376, "lon": 139.6437391, "tags": {"light_rail": "yes", "name": "\u5e78\u6d66", "name:en": "Sachiura", "name:es": "Sachiura", "name:ja": "\u5e78\u6d66", "name:ja_kana": "\u3055\u3061\u3046\u3089", "name:ja_rm": "Sachiura", "name:ko": "\uc0ac\uce58\uc6b0\ub77c", "public_transport": "station", "railway": "station", "ref": "6", "source": "KSJ2", "source_ref": "http://nlftp.mlit.go.jp/ksj/jpgis/datalist/KsjTmplt-N02-v1_1.html", "station": "light_rail", "wikidata": "Q7396765", "wikipedia": "ja:\u5e78\u6d66\u99c5"}}, {"type": "node", "id": 280728953, "lat": 35.3496489, "lon": 139.6485436, "tags": {"light_rail": "yes", "name": "\u798f\u6d66", "name:en": "Fukuura", "name:ja": "\u798f\u6d66", "name:ja_kana": "\u3075\u304f\u3046\u3089", "name:ja_rm": "Fukuura", "name:ko": "\ud6c4\ucfe0\uc6b0\ub77c", "public_transport": "station", "railway": "station", "ref": "8", "source": "KSJ2", "source_ref": "http://nlftp.mlit.go.jp/ksj/jpgis/datalist/KsjTmplt-N02-v1_1.html", "station": "light_rail", "wikidata": "Q5507751", "wikipedia": "ja:\u798f\u6d66\u99c5"}}, {"type": "node", "id": 280728980, "lat": 35.3534255, "lon": 139.646291, "tags": {"alt_name:ko": "\uc0b0\uad50\uc2e0\ucf54\uc13c\ud130", "light_rail": "yes", "name": "\u7523\u696d\u632f\u8208\u30bb\u30f3\u30bf\u30fc", "name:en": "Sangyoshinko Center", "name:ja": "\u7523\u696d\u632f\u8208\u30bb\u30f3\u30bf\u30fc", "name:ja_kana": "\u3055\u3093\u304e\u3087\u3046\u3057\u3093\u3053\u3046\u305b\u3093\u305f\u30fc", "name:ja_rm": "Sangy\u014d shink\u014d sent\u0101", "name:ko": "\uc0b0\uc5c5\uc9c4\ud765\uc13c\ud130", "public_transport": "station", "railway": "station", "ref": "7", "source": "KSJ2", "source_ref": "http://nlftp.mlit.go.jp/ksj/jpgis/datalist/KsjTmplt-N02-v1_1.html", "station": "light_rail", "wikidata": "Q7418197", "wikipedia": "ja:\u7523\u696d\u632f\u8208\u30bb\u30f3\u30bf\u30fc\u99c5"}}, {"type": "node", "id": 307882453, "lat": 35.5455896, "lon": 139.4921288, "tags": {"name": "\u6069\u7530", "name:en": "Onda", "name:ja": "\u6069\u7530", "name:ja_kana": "\u304a\u3093\u3060", "name:ja_rm": "Onda", "name:ko": "\uc628\ub2e4", "network": "\u6771\u6025\u96fb\u9244", "network:en": "Tokyu Railways", "network:ja": "\u6771\u6025\u96fb\u9244", "network:wikidata": "Q80229029", "operator": "\u6771\u6025\u96fb\u9244", "public_transport": "station", "railway": "station", "ref": "KD02", "source": "KSJ2", "train": "yes", "wikidata": "Q7092149", "wikipedia": "ja:\u6069\u7530\u99c5"}}, {"type": "node", "id": 355845276, "lat": 35.4015158, "lon": 139.5725338, "tags": {"name": "\u4e0a\u6c38\u8c37", "name:en": "Kaminagaya", "name:es": "Kaminagaya", "name:ja": "\u4e0a\u6c38\u8c37", "name:ja-Hira": "\u304b\u307f\u306a\u304c\u3084", "name:ko": "\uac00\ubbf8\ub098\uac00\uc57c", "operator": "\u6a2a\u6d5c\u5e02\u4ea4\u901a\u5c40", "public_transport": "station", "railway": "station", "ref": "B09", "source": "KSJ2", "source_ref": "http://nlftp.mlit.go.jp/ksj/jpgis/datalist/KsjTmplt-N02-v1_1.html", "station": "subway", "subway": "yes", "wheelchair": "yes", "wikidata": "Q841420", "wikipedia": "ja:\u4e0a\u6c38\u8c37\u99c5"}}, {"type": "node", "id": 694234836, "lat": 35.52186, "lon": 139.6298585, "tags": {"name": "\u5927\u5009\u5c71", "name:en": "Okurayama", "name:es": "Okurayama", "name:ja": "\u5927\u5009\u5c71", "name:ja_kana": "\u304a\u304a\u304f\u3089\u3084\u307e", "name:ja_rm": "\u014ckurayama", "name:ko": "\uc624\ucfe0\ub77c\uc57c\ub9c8", "operator": "\u6771\u4eac\u6025\u884c\u96fb\u9244", "public_transport": "station", "railway": "station", "ref": "TY15", "train": "yes", "wikidata": "Q8081588", "wikipedia": "ja:\u5927\u5009\u5c71\u99c5 (\u795e\u5948\u5ddd\u770c)"}}, {"type": "node", "id": 823268950, "lat": 35.4057234, "lon": 139.4824589, "tags": {"KSJ2:LIN": "\u3044\u305a\u307f\u91ce\u7dda", "KSJ2:RAS": "eb03_5067", "KSJ2:STN": "\u3086\u3081\u304c\u4e18", "KSJ2:segment": "eb02_10537", "name": "\u3086\u3081\u304c\u4e18", "name:de": "Yumegaoka", "name:en": "Yumegaoka", "name:ja": "\u3086\u3081\u304c\u4e18", "name:ja-Hira": "\u3086\u3081\u304c\u304a\u304b", "name:ja_rm": "Yumegaoka", "name:ko": "\uc720\uba54\uac00\uc624\uce74", "note": "National-Land Numerical Information (Railway) 2007, MLIT Japan", "note:ja": "\u56fd\u571f\u6570\u5024\u60c5\u5831\uff08\u9244\u9053\u30c7\u30fc\u30bf\uff09\u5e73\u621019\u5e74\u3000\u56fd\u571f\u4ea4\u901a\u7701", "platforms": "2", "public_transport": "station", "railway": "station", "ref": "SO36", "source": "KSJ2", "source_ref": "http://nlftp.mlit.go.jp/ksj/jpgis/datalist/KsjTmplt-N02-v1_1.html", "train": "yes", "wikidata": "Q5367513", "wikipedia": "ja:\u3086\u3081\u304c\u4e18\u99c5"}}, {"type": "node", "id": 823269102, "lat": 35.4298971, "lon": 139.5063488, "tags": {"KSJ2:LIN": "\u3044\u305a\u307f\u91ce\u7dda", "KSJ2:RAS": "eb03_5065", "KSJ2:STN": "\u5f25\u751f\u53f0", "KSJ2:segment": "eb02_10532", "name": "\u5f25\u751f\u53f0", "name:de": "Yayoidai", "name:en": "Yayoidai", "name:ja": "\u5f25\u751f\u53f0", "name:ja-Hira": "\u3084\u3088\u3044\u3060\u3044", "name:ja_rm": "Yayoidai", "name:ko": "\uc57c\uc694\uc774\ub2e4\uc774", "note": "National-Land Numerical Information (Railway) 2007, MLIT Japan", "note:ja": "\u56fd\u571f\u6570\u5024\u60c5\u5831\uff08\u9244\u9053\u30c7\u30fc\u30bf\uff09\u5e73\u621019\u5e74\u3000\u56fd\u571f\u4ea4\u901a\u7701", "platforms": "2", "public_transport": "station", "railway": "station", "ref": "SO33", "source": "KSJ2", "source_ref": "http://nlftp.mlit.go.jp/ksj/jpgis/datalist/KsjTmplt-N02-v1_1.html", "website": "https://www.sotetsu.co.jp/train/stations/yayoidai/", "wikidata": "Q8050550", "wikipedia": "ja:\u5f25\u751f\u53f0\u99c5"}}, {"type": "node", "id": 823269235, "lat": 35.452353, "lon": 139.526377, "tags": {"KSJ2:LIN": "\u3044\u305a\u307f\u91ce\u7dda", "KSJ2:RAS": "eb03_5063", "KSJ2:STN": "\u5357\u4e07\u9a0e\u304c\u539f", "KSJ2:segment": "eb02_10524", "name": "\u5357\u4e07\u9a0e\u304c\u539f", "name:de": "Makigahara S\u00fcd", "name:en": "Minami-Makigahara", "name:ja": "\u5357\u4e07\u9a0e\u304c\u539f", "name:ja-Hira": "\u307f\u306a\u307f\u307e\u304d\u304c\u306f\u3089", "name:ko": "\ubbf8\ub098\ubbf8\ub9c8\ud0a4\uac00\ud558\ub77c", "note": "National-Land Numerical Information (Railway) 2007, MLIT Japan", "note:ja": "\u56fd\u571f\u6570\u5024\u60c5\u5831\uff08\u9244\u9053\u30c7\u30fc\u30bf\uff09\u5e73\u621019\u5e74\u3000\u56fd\u571f\u4ea4\u901a\u7701", "platforms": "2", "public_transport": "station", "railway": "station", "ref": "SO31", "source": "KSJ2", "source_ref": "http://nlftp.mlit.go.jp/ksj/jpgis/datalist/KsjTmplt-N02-v1_1.html", "wikidata": "Q6862945", "wikipedia": "ja:\u5357\u4e07\u9a0e\u304c\u539f\u99c5"}}, {"type": "node", "id": 823269267, "lat": 35.4394435, "lon": 139.5218816, "tags": {"KSJ2:LIN": "\u3044\u305a\u307f\u91ce\u7dda", "KSJ2:RAS": "eb03_5066", "KSJ2:STN": "\u7dd1\u5712\u90fd\u5e02", "KSJ2:segment": "eb02_10528", "name": "\u7dd1\u5712\u90fd\u5e02", "name:de": "Ryokuen-toshi", "name:en": "Ryokuen-toshi", "name:ja": "\u7dd1\u5712\u90fd\u5e02", "name:ja-Hira": "\u308a\u3087\u304f\u3048\u3093\u3068\u3057", "name:ja_rm": "Ryokuen Toshi", "name:ko": "\ub8cc\ucfe0\uc5d4\ud1a0\uc2dc", "note": "National-Land Numerical Information (Railway) 2007, MLIT Japan", "note:ja": "\u56fd\u571f\u6570\u5024\u60c5\u5831\uff08\u9244\u9053\u30c7\u30fc\u30bf\uff09\u5e73\u621019\u5e74\u3000\u56fd\u571f\u4ea4\u901a\u7701", "platforms": "2", "public_transport": "station", "railway": "station", "ref": "SO32", "source": "KSJ2", "source_ref": "http://nlftp.mlit.go.jp/ksj/jpgis/datalist/KsjTmplt-N02-v1_1.html", "website": "https://www.sotetsu.co.jp/train/stations/ryokuentoshi/", "wikidata": "Q7385303", "wikipedia": "ja:\u7dd1\u5712\u90fd\u5e02\u99c5"}}, {"type": "node", "id": 823269414, "lat": 35.4152489, "lon": 139.4872874, "tags": {"KSJ2:LIN": "\u3044\u305a\u307f\u91ce\u7dda", "KSJ2:RAS": "eb03_5070", "KSJ2:STN": "\u3044\u305a\u307f\u4e2d\u592e", "KSJ2:segment": "eb02_10521", "alt_name:ko": "\uc774\uc988\ubbf8\ucd94\uc624", "name": "\u3044\u305a\u307f\u4e2d\u592e", "name:de": "Izumi Mitte", "name:en": "Izumi-Chuo", "name:ja": "\u3044\u305a\u307f\u4e2d\u592e", "name:ja-Hira": "\u3044\u305a\u307f\u3061\u3085\u3046\u304a\u3046", "name:ja_rm": "Izumi Ch\u016b\u014d", "name:ko": "\uc774\uc988\ubbf8\uc911\uc559", "note": "National-Land Numerical Information (Railway) 2007, MLIT Japan", "note:ja": "\u56fd\u571f\u6570\u5024\u60c5\u5831\uff08\u9244\u9053\u30c7\u30fc\u30bf\uff09\u5e73\u621019\u5e74\u3000\u56fd\u571f\u4ea4\u901a\u7701", "platforms": "2", "public_transport": "station", "railway": "station", "ref": "SO35", "source": "KSJ2", "source_ref": "http://nlftp.mlit.go.jp/ksj/jpgis/datalist/KsjTmplt-N02-v1_1.html", "wheelchair": "limited", "wikidata": "Q6102271", "wikipedia": "ja:\u3044\u305a\u307f\u4e2d\u592e\u99c5"}}, {"type": "node", "id": 823269446, "lat": 35.429465, "lon": 139.4949527, "tags": {"KSJ2:LIN": "\u3044\u305a\u307f\u91ce\u7dda", "KSJ2:RAS": "eb03_5064", "KSJ2:STN": "\u3044\u305a\u307f\u91ce", "KSJ2:segment": "eb02_10533", "name": "\u3044\u305a\u307f\u91ce", "name:de": "Izumino", "name:en": "Izumino", "name:ja": "\u3044\u305a\u307f\u91ce", "name:ja-Hira": "\u3044\u305a\u307f\u306e", "name:ko": "\uc774\uc988\ubbf8\ub178", "note": "National-Land Numerical Information (Railway) 2007, MLIT Japan", "note:ja": "\u56fd\u571f\u6570\u5024\u60c5\u5831\uff08\u9244\u9053\u30c7\u30fc\u30bf\uff09\u5e73\u621019\u5e74\u3000\u56fd\u571f\u4ea4\u901a\u7701", "platforms": "4", "public_transport": "station", "railway": "station", "ref": "SO34", "source": "KSJ2", "source_ref": "http://nlftp.mlit.go.jp/ksj/jpgis/datalist/KsjTmplt-N02-v1_1.html", "website": "https://www.sotetsu.co.jp/train/stations/izumino/", "wikidata": "Q6102365", "wikipedia": "ja:\u3044\u305a\u307f\u91ce\u99c5"}}, {"type": "node", "id": 823271603, "lat": 35.4749432, "lon": 139.5493487, "tags": {"name": "\u9db4\u30b1\u5cf0", "name:de": "Tsurugamine", "name:en": "Tsurugamine", "name:ja": "\u9db4\u30b1\u5cf0", "name:ja-Hira": "\u3064\u308b\u304c\u307f\u306d", "name:ko": "\uc4f0\ub8e8\uac00\ubbf8\ub124", "public_transport": "station", "railway": "station", "ref": "SO09", "source": "KSJ2", "wikidata": "Q11675875", "wikipedia": "ja:\u9db4\u30b1\u5cf0\u99c5"}}, {"type": "node", "id": 823272153, "lat": 35.4678244, "lon": 139.5025493, "tags": {"KSJ2:LIN": "\u672c\u7dda", "KSJ2:RAS": "eb03_5078", "KSJ2:STN": "\u4e09\u30c4\u5883", "KSJ2:segment": "eb02_10571", "name": "\u4e09\u30c4\u5883", "name:de": "Mitsukyo", "name:en": "Mitsukyo", "name:ja": "\u4e09\u30c4\u5883", "name:ja-Hira": "\u307f\u3064\u304d\u3087\u3046", "name:ko": "\ubbf8\uc4f0\ucfc4", "note": "National-Land Numerical Information (Railway) 2007, MLIT Japan", "note:ja": "\u56fd\u571f\u6570\u5024\u60c5\u5831\uff08\u9244\u9053\u30c7\u30fc\u30bf\uff09\u5e73\u621019\u5e74\u3000\u56fd\u571f\u4ea4\u901a\u7701", "public_transport": "station", "railway": "station", "source": "KSJ2", "source_ref": "http://nlftp.mlit.go.jp/ksj/jpgis/datalist/KsjTmplt-N02-v1_1.html", "wikidata": "Q11354006", "wikipedia": "ja:\u4e09\u30c4\u5883\u99c5"}}, {"type": "node", "id": 823272267, "lat": 35.4636072, "lon": 139.5868099, "tags": {"name": "\u548c\u7530\u753a", "name:de": "Wadamachi", "name:en": "Wadamachi", "name:ja": "\u548c\u7530\u753a", "name:ja-Hira": "\u308f\u3060\u307e\u3061", "name:ko": "\uc640\ub2e4\ub9c8\uce58", "note": "National-Land Numerical Information (Railway) 2007, MLIT Japan", "public_transport": "station", "railway": "station", "ref": "SO06", "source": "KSJ2", "source_ref": "http://nlftp.mlit.go.jp/ksj/jpgis/datalist/KsjTmplt-N02-v1_1.html", "wikidata": "Q7958950", "wikipedia": "ja:\u548c\u7530\u753a\u99c5"}}, {"type": "node", "id": 823272622, "lat": 35.4781303, "lon": 139.5656561, "tags": {"name": "\u897f\u8c37", "name:de": "Nishiya", "name:en": "Nishiya", "name:ja": "\u897f\u8c37", "name:ja-Hira": "\u306b\u3057\u3084", "name:ko": "\ub2c8\uc2dc\uc57c", "note": "National-Land Numerical Information (Railway) 2007, MLIT Japan", "platforms": "4", "public_transport": "station", "railway": "station", "ref": "SO08", "source": "KSJ2", "source_ref": "http://nlftp.mlit.go.jp/ksj/jpgis/datalist/KsjTmplt-N02-v1_1.html", "wikidata": "Q7040756", "wikipedia": "ja:\u897f\u8c37\u99c5"}}, {"type": "node", "id": 823272743, "lat": 35.4532879, "lon": 139.6084809, "tags": {"name": "\u897f\u6a2a\u6d5c", "name:de": "Yokohama West", "name:en": "Nishi-Yokohama", "name:ja": "\u897f\u6a2a\u6d5c", "name:ja-Hira": "\u306b\u3057\u3088\u3053\u306f\u307e", "name:ko": "\ub2c8\uc2dc\uc694\ucf54\ud558\ub9c8", "note": "National-Land Numerical Information (Railway) 2007, MLIT Japan", "public_transport": "station", "railway": "station", "ref": "SO03", "source": "KSJ2", "source_ref": "http://nlftp.mlit.go.jp/ksj/jpgis/datalist/KsjTmplt-N02-v1_1.html", "wikidata": "Q11628832", "wikipedia": "ja:\u897f\u6a2a\u6d5c\u99c5"}}, {"type": "node", "id": 823272815, "lat": 35.4540049, "lon": 139.6026308, "tags": {"alt_name": "\u6a2a\u6d5c\u30d3\u30b8\u30cd\u30b9\u30d1\u30fc\u30af\u524d", "name": "\u5929\u738b\u753a", "name:en": "Tennocho", "name:ja": "\u5929\u738b\u753a", "name:ja-Hira": "\u3066\u3093\u306e\u3046\u3061\u3087\u3046", "name:ko": "\ub374\ub178\ucd08", "note": "National-Land Numerical Information (Railway) 2007, MLIT Japan", "platforms": "2", "public_transport": "station", "railway": "station", "ref": "SO04", "source": "KSJ2", "source_ref": "http://nlftp.mlit.go.jp/ksj/jpgis/datalist/KsjTmplt-N02-v1_1.html", "wikidata": "Q7700532", "wikipedia": "ja:\u5929\u738b\u753a\u99c5"}}, {"type": "node", "id": 823272975, "lat": 35.4634653, "lon": 139.5322366, "tags": {"alt_name": "\u30b8\u30e7\u30a4\u30ca\u30b9\u30c6\u30e9\u30b9\u524d", "name": "\u4e8c\u4fe3\u5ddd", "name:de": "Futamatagawa", "name:en": "Futamatagawa", "name:ja": "\u4e8c\u4fe3\u5ddd", "name:ja-Hira": "\u3075\u305f\u307e\u305f\u304c\u308f", "name:ko": "\ud6c4\ud0c0\ub9c8\ud0c0\uac00\uc640", "note": "National-Land Numerical Information (Railway) 2007, MLIT Japan", "platforms": "4", "public_transport": "station", "railway": "station", "ref": "SO10", "source": "KSJ2", "source_ref": "http://nlftp.mlit.go.jp/ksj/jpgis/datalist/KsjTmplt-N02-v1_1.html", "wikidata": "Q846471", "wikipedia": "ja:\u4e8c\u4fe3\u5ddd\u99c5"}}, {"type": "node", "id": 823273031, "lat": 35.4588276, "lon": 139.5946998, "tags": {"name": "\u661f\u5ddd", "name:en": "Hoshikawa", "name:ja": "\u661f\u5ddd", "name:ja-Hira": "\u307b\u3057\u304b\u308f", "name:ko": "\ud638\uc2dc\uce74\uc640", "note": "National-Land Numerical Information (Railway) 2007, MLIT Japan", "platforms": "4", "public_transport": "station", "railway": "station", "ref": "SO05", "source": "KSJ2;local knowledge", "source_ref": "http://nlftp.mlit.go.jp/ksj/jpgis/datalist/KsjTmplt-N02-v1_1.html", "wikidata": "Q5908047", "wikipedia": "ja:\u661f\u5ddd\u99c5 (\u795e\u5948\u5ddd\u770c)"}}, {"type": "node", "id": 823273057, "lat": 35.4703958, "lon": 139.4825295, "tags": {"KSJ2:LIN": "\u672c\u7dda", "KSJ2:RAS": "eb03_5082", "KSJ2:STN": "\u702c\u8c37", "KSJ2:segment": "eb02_10553", "name": "\u702c\u8c37", "name:de": "Seya", "name:en": "Seya", "name:ja": "\u702c\u8c37", "name:ja-Hira": "\u305b\u3084", "name:ja_rm": "Seya", "name:ko": "\uc138\uc57c", "note": "National-Land Numerical Information (Railway) 2007, MLIT Japan", "note:ja": "\u56fd\u571f\u6570\u5024\u60c5\u5831\uff08\u9244\u9053\u30c7\u30fc\u30bf\uff09\u5e73\u621019\u5e74\u3000\u56fd\u571f\u4ea4\u901a\u7701", "public_transport": "station", "railway": "station", "source": "KSJ2", "source_ref": "http://nlftp.mlit.go.jp/ksj/jpgis/datalist/KsjTmplt-N02-v1_1.html", "wikidata": "Q7458919", "wikipedia": "ja:\u702c\u8c37\u99c5"}}, {"type": "node", "id": 823273226, "lat": 35.467719, "lon": 139.5800137, "tags": {"name": "\u4e0a\u661f\u5ddd", "name:en": "Kami-Hoshikawa", "name:ja": "\u4e0a\u661f\u5ddd", "name:ja-Hira": "\u304b\u307f\u307b\u3057\u304b\u308f", "name:ko": "\uac00\ubbf8\ud638\uc2dc\uce74\uc640", "note": "National-Land Numerical Information (Railway) 2007, MLIT Japan", "platforms": "2", "public_transport": "station", "railway": "station", "ref": "SO07", "source": "KSJ2", "source_ref": "http://nlftp.mlit.go.jp/ksj/jpgis/datalist/KsjTmplt-N02-v1_1.html", "wikidata": "Q11359095", "wikipedia": "ja:\u4e0a\u661f\u5ddd\u99c5"}}, {"type": "node", "id": 823273354, "lat": 35.4596654, "lon": 139.6163426, "tags": {"name": "\u5e73\u6cbc\u6a4b", "name:de": "Hiranuma-bashi", "name:en": "Hiranuma-bashi", "name:ja": "\u5e73\u6cbc\u6a4b", "name:ja-Hira": "\u3072\u3089\u306c\u307e\u3070\u3057", "name:ja_rm": "Hiranuma Bashi", "name:ko": "\ud788\ub77c\ub204\ub9c8\ubc14\uc2dc", "note": "National-Land Numerical Information (Railway) 2007, MLIT Japan", "operator": "\u76f8\u6a21\u9244\u9053", "public_transport": "station", "railway": "station", "ref": "SO02", "source": "KSJ2", "source_ref": "http://nlftp.mlit.go.jp/ksj/jpgis/datalist/KsjTmplt-N02-v1_1.html", "wikidata": "Q5769436", "wikipedia": "ja:\u5e73\u6cbc\u6a4b\u99c5"}}, {"type": "node", "id": 1017449063, "lat": 35.4985364, "lon": 139.6332256, "tags": {"name": "\u5999\u84ee\u5bfa", "name:en": "Myorenji", "name:es": "Myorenji", "name:ja": "\u5999\u84ee\u5bfa", "name:ja_kana": "\u307f\u3087\u3046\u308c\u3093\u3058", "name:ja_rm": "My\u014drenji", "name:ko": "\ubb18\ub80c\uc9c0", "operator": "\u6771\u4eac\u6025\u884c\u96fb\u9244", "public_transport": "station", "railway": "station", "ref": "TY17", "source": "Bing", "wheelchair": "yes", "wikidata": "Q6949405", "wikipedia": "ja:\u5999\u84ee\u5bfa\u99c5"}}, {"type": "node", "id": 1218588914, "lat": 35.4746815, "lon": 139.6252491, "tags": {"name": "\u53cd\u753a", "name:en": "Tammachi", "name:ja": "\u53cd\u753a", "name:ja_kana": "\u305f\u3093\u307e\u3061", "name:ja_rm": "Tammachi", "name:ko": "\ub2e8\ub9c8\uce58", "operator": "\u6771\u4eac\u6025\u884c\u96fb\u9244", "public_transport": "station", "railway": "station", "ref": "TY20", "source": "Bing", "wikidata": "Q7681523", "wikipedia": "ja:\u53cd\u753a\u99c5"}}, {"type": "node", "id": 1656240306, "lat": 35.4303614, "lon": 139.5567625, "tags": {"name": "\u6771\u6238\u585a", "name:de": "Totsuka Ost", "name:en": "Higashi-Totsuka", "name:ja": "\u6771\u6238\u585a", "name:ja_kana": "\u3072\u304c\u3057\u3068\u3064\u304b", "name:ja_rm": "Higashi Totsuka", "name:ko": "\ud788\uac00\uc2dc\ud1a0\uc4f0\uce74", "note": "National-Land Numerical Information (Railway) 2007, MLIT Japan", "operator": "\u6771\u65e5\u672c\u65c5\u5ba2\u9244\u9053", "public_transport": "station", "railway": "station", "source": "KSJ2", "source_ref": "http://nlftp.mlit.go.jp/ksj/jpgis/datalist/KsjTmplt-N02-v1_1.html", "wheelchair": "yes", "wikidata": "Q844252", "wikipedia": "ja:\u6771\u6238\u585a\u99c5"}}, {"type": "node", "id": 1705352003, "lat": 35.4604534, "lon": 139.5142614, "tags": {"name": "\u5e0c\u671b\u30f6\u4e18", "name:de": "Kibogaoka", "name:en": "Kibogaoka", "name:ja": "\u5e0c\u671b\u30f6\u4e18", "name:ja-Hira": "\u304d\u307c\u3046\u304c\u304a\u304b", "name:ko": "\uae30\ubcf4\uac00\uc624\uce74", "platforms": "2", "public_transport": "station", "railway": "station", "wikidata": "Q6404108", "wikipedia": "ja:\u5e0c\u671b\u30f6\u4e18\u99c5"}}, {"type": "node", "id": 1939348169, "lat": 35.405611, "lon": 139.5183476}, {"type": "node", "id": 1939348172, "lat": 35.4056132, "lon": 139.5183114}, {"type": "node", "id": 1939348174, "lat": 35.4056228, "lon": 139.5183239}, {"type": "node", "id": 1939348175, "lat": 35.4056239, "lon": 139.5182771}, {"type": "node", "id": 1939348177, "lat": 35.4056282, "lon": 139.518372}, {"type": "node", "id": 1939348179, "lat": 35.405633, "lon": 139.5182876}, {"type": "node", "id": 1939348181, "lat": 35.4056405, "lon": 139.5181387}, {"type": "node", "id": 1939348183, "lat": 35.405647, "lon": 139.518345}, {"type": "node", "id": 1939348186, "lat": 35.4056615, "lon": 139.5183548}, {"type": "node", "id": 1939348192, "lat": 35.405676, "lon": 139.5182797}, {"type": "node", "id": 1939348195, "lat": 35.4056937, "lon": 139.5181493}, {"type": "node", "id": 1939348197, "lat": 35.4057007, "lon": 139.5182988}, {"type": "node", "id": 1939348248, "lat": 35.4056764, "lon": 139.5183323, "tags": {"name": "\u51fa\u5165\u53e33", "name:ja": "\u51fa\u5165\u53e33", "railway": "subway_entrance"}}, {"type": "node", "id": 2341274088, "lat": 35.5311567, "lon": 139.6844567, "tags": {"name": "\u5c3b\u624b", "name:en": "Shitte", "name:es": "Shitte", "name:ja": "\u5c3b\u624b", "name:ja_kana": "\u3057\u3063\u3066", "name:ja_rm": "Shitte", "name:ko": "\uc2ef\ud14c", "note": "National-Land Numerical Information (Railway) 2007, MLIT Japan", "railway": "station", "source": "KSJ2", "source_ref": "http://nlftp.mlit.go.jp/ksj/jpgis/datalist/KsjTmplt-N02-v1_1.html", "wikidata": "Q5367537", "wikipedia": "ja:\u5c3b\u624b\u99c5"}}, {"type": "node", "id": 2468944535, "lat": 35.5534049, "lon": 139.5782611, "tags": {"alt_name": "\u30e2\u30b6\u30a4\u30af\u30e2\u30fc\u30eb\u6e2f\u5317\u524d", "name": "\u30bb\u30f3\u30bf\u30fc\u5317", "name:en": "Center Kita", "name:ja": "\u30bb\u30f3\u30bf\u30fc\u5317", "name:ja-Hira": "\u305b\u3093\u305f\u30fc\u304d\u305f", "name:ja_rm": "Sent\u0101 kita", "name:ko": "\uc13c\ud130\uae30\ud0c0", "network": "\u6a2a\u6d5c\u5e02\u55b6\u5730\u4e0b\u9244", "operator": "\u6a2a\u6d5c\u5e02\u4ea4\u901a\u5c40", "public_transport": "station", "railway": "station", "ref": "B30", "station": "subway", "subway": "yes", "wheelchair": "yes", "wikidata": "Q847363", "wikipedia": "ja:\u30bb\u30f3\u30bf\u30fc\u5317\u99c5"}}, {"type": "node", "id": 2550872398, "lat": 35.3430205, "lon": 139.6216115, "tags": {"name": "\u91d1\u6ca2\u6587\u5eab", "name:en": "Kanazawa-bunko", "name:ja": "\u91d1\u6ca2\u6587\u5eab", "name:ja_kana": "\u304b\u306a\u3056\u308f\u3076\u3093\u3053", "name:ja_rm": "Kanazawa bunko", "name:ko": "\uac00\ub098\uc790\uc640\ubd84\ucf54", "operator": "\u4eac\u6d5c\u6025\u884c\u96fb\u9244", "operator:en": "Keikyu Corporation", "operator:ja": "\u4eac\u6d5c\u6025\u884c\u96fb\u9244", "public_transport": "station", "railway": "station", "ref": "KK49", "source_ref": "http://nlftp.mlit.go.jp/ksj/jpgis/datalist/KsjTmplt-N02-v1_1.html", "wikidata": "Q6360872", "wikipedia": "ja:\u91d1\u6ca2\u6587\u5eab\u99c5"}}, {"type": "node", "id": 2550872399, "lat": 35.3311864, "lon": 139.6201441, "tags": {"contact:website": "https://www.keikyu.co.jp/ride/kakueki/KK50.html", "name": "\u91d1\u6ca2\u516b\u666f", "name:en": "Kanazawa-Hakkei", "name:es": "Kanazawa-Hakkei", "name:ja": "\u91d1\u6ca2\u516b\u666f", "name:ja-Kana": "\u304b\u306a\u3056\u308f\u306f\u3063\u3051\u3044", "name:ja-Latn": "Kanazawa-Hakkei", "name:ko": "\uac00\ub098\uc790\uc640\ud56b\ucf00\uc774", "operator": "\u4eac\u6d5c\u6025\u884c\u96fb\u9244", "operator:en": "Keikyu Corporation", "operator:ja": "\u4eac\u6d5c\u6025\u884c\u96fb\u9244", "public_transport": "station", "railway": "station", "ref": "KK50", "source_ref": "http://nlftp.mlit.go.jp/ksj/jpgis/datalist/KsjTmplt-N02-v1_1.html", "train": "yes", "wikidata": "Q6360870", "wikipedia": "ja:\u91d1\u6ca2\u516b\u666f\u99c5"}}, {"type": "node", "id": 2550872475, "lat": 35.4952868, "lon": 139.6669214, "tags": {"gauge": "1435", "name": "\u751f\u9ea6", "name:en": "Namamugi", "name:ja": "\u751f\u9ea6", "name:ja_kana": "\u306a\u307e\u3080\u304e", "name:ja_rm": "Namamugi", "name:ko": "\ub098\ub9c8\ubb34\uae30", "note": "National-Land Numerical Information (Railway) 2007, MLIT Japan", "operator": "\u4eac\u6d5c\u6025\u884c\u96fb\u9244", "operator:en": "Keikyu Corporation", "operator:ja": "\u4eac\u6d5c\u6025\u884c\u96fb\u9244", "public_transport": "station", "railway": "station", "ref": "KK31", "source": "Bing", "source_ref": "http://nlftp.mlit.go.jp/ksj/jpgis/datalist/KsjTmplt-N02-v1_1.html", "wikidata": "Q6961267", "wikipedia": "ja:\u751f\u9ea6\u99c5"}}, {"type": "node", "id": 2550872524, "lat": 35.4870984, "lon": 139.6554751, "tags": {"gauge": "1435", "name": "\u4eac\u6025\u65b0\u5b50\u5b89", "name:en": "Keikyu Shinkoyasu", "name:ja": "\u4eac\u6025\u65b0\u5b50\u5b89", "name:ja_kana": "\u3051\u3044\u304d\u3085\u3046\u3057\u3093\u3053\u3084\u3059", "name:ja_rm": "Keiky\u016b Shinkoyasu", "name:ko": "\uac8c\uc774\ud050\uc2e0\ucf54\uc57c\uc2a4", "operator": "\u4eac\u6d5c\u6025\u884c\u96fb\u9244", "operator:en": "Keikyu Corporation", "operator:ja": "\u4eac\u6d5c\u6025\u884c\u96fb\u9244", "public_transport": "station", "railway": "station", "ref": "KK32", "source": "Bing", "source_ref": "http://nlftp.mlit.go.jp/ksj/jpgis/datalist/KsjTmplt-N02-v1_1.html", "wikidata": "Q6383710", "wikipedia": "ja:\u4eac\u6025\u65b0\u5b50\u5b89\u99c5"}}, {"type": "node", "id": 2733108868, "lat": 35.4143405, "lon": 139.4997072}, {"type": "node", "id": 2733108869, "lat": 35.4141354, "lon": 139.4997542}, {"type": "node", "id": 2733108870, "lat": 35.4142623, "lon": 139.5006069}, {"type": "node", "id": 2733108871, "lat": 35.4144703, "lon": 139.5005592}, {"type": "node", "id": 2738954706, "lat": 35.4510054, "lon": 139.6310016, "tags": {"name": "\u685c\u6728\u753a", "name:en": "Sakuragicho", "name:es": "Sakuragicho", "name:fr": "Sakuragicho", "name:ja": "\u685c\u6728\u753a", "name:ja-Hira": "\u3055\u304f\u3089\u304e\u3061\u3087\u3046", "name:ja_kana": "\u3055\u304f\u3089\u304e\u3061\u3087\u3046", "name:ja_rm": "Sakuragicho", "name:ko": "\uc0ac\ucfe0\ub77c\uae30\ucd08", "note": "National-Land Numerical Information (Railway) 2007, MLIT Japan", "public_transport": "station", "railway": "station", "source": "KSJ2", "source_ref": "http://nlftp.mlit.go.jp/ksj/jpgis/datalist/KsjTmplt-N02-v1_1.html", "wheelchair": "yes", "wikidata": "Q801396", "wikipedia": "ja:\u685c\u6728\u753a\u99c5"}}, {"type": "node", "id": 3205664660, "lat": 35.5083388, "lon": 139.6759759, "tags": {"name": "\u9db4\u898b", "name:en": "Tsurumi", "name:ja": "\u9db4\u898b", "name:ja_kana": "\u3064\u308b\u307f", "name:ja_rm": "Tsurumi", "name:ko": "\uc4f0\ub8e8\ubbf8", "name:ru": "\u0426\u0443\u0440\u0443\u043c\u0438", "operator": "\u6771\u65e5\u672c\u65c5\u5ba2\u9244\u9053", "public_transport": "station", "railway": "station", "wikidata": "Q128164", "wikipedia": "ja:\u9db4\u898b\u99c5"}}, {"type": "node", "id": 3213632950, "lat": 35.5096856, "lon": 139.6302732, "tags": {"name": "\u83ca\u540d", "name:en": "Kikuna", "name:ja": "\u83ca\u540d", "name:ja-Hira": "\u304d\u304f\u306a", "name:ja-Latn": "Kikuna", "name:ko": "\uae30\ucfe0\ub098", "operator": "\u6771\u65e5\u672c\u65c5\u5ba2\u9244\u9053", "public_transport": "station", "railway": "station", "train": "yes", "wikidata": "Q801006", "wikipedia": "ja:\u83ca\u540d\u99c5"}}, {"type": "node", "id": 3357596414, "lat": 35.5353877, "lon": 139.4728465, "tags": {"name": "\u6210\u702c", "name:en": "Naruse", "name:ja-Hira": "\u306a\u308b\u305b", "name:ja-Latn": "Naruse", "name:ko": "\ub098\ub8e8\uc138", "operator": "\u6771\u65e5\u672c\u65c5\u5ba2\u9244\u9053", "operator:en": "East Japan Railway Company", "public_transport": "station", "railway": "station", "ref": "JH22", "source": "KSJ2", "train": "yes", "wikidata": "Q844689", "wikipedia": "ja:\u6210\u702c\u99c5"}}, {"type": "node", "id": 3357596416, "lat": 35.5317189, "lon": 139.4952527, "tags": {"contact:website": "https://www.jreast.co.jp/estation/station/info.aspx?StationCd=1100", "name": "\u9577\u6d25\u7530", "name:en": "Nagatsuta", "name:ja": "\u9577\u6d25\u7530", "name:ja-Kana": "\u306a\u304c\u3064\u305f", "name:ja-Latn": "Nagatsuta", "name:ko": "\ub098\uac00\uc4f0\ub2e4", "name:ru": "\u041d\u0430\u0433\u0430\u0446\u0443\u0442\u0430", "operator": "\u6771\u65e5\u672c\u65c5\u5ba2\u9244\u9053", "operator:en": "East Japan Railway Company", "operator:ja": "\u6771\u65e5\u672c\u65c5\u5ba2\u9244\u9053", "public_transport": "station", "railway": "station", "ref": "JH21", "source": "KSJ2", "train": "yes", "wheelchair": "yes", "wikidata": "Q801229", "wikipedia": "ja:\u9577\u6d25\u7530\u99c5"}}, {"type": "node", "id": 3585794198, "lat": 35.5068329, "lon": 139.6175837, "tags": {"highspeed": "yes", "name": "\u65b0\u6a2a\u6d5c", "name:en": "Shin-Yokohama", "name:it": "Shin-Yokohama", "name:ja": "\u65b0\u6a2a\u6d5c", "name:ja-Hira": "\u3057\u3093\u3088\u3053\u306f\u307e", "name:ja-Latn": "Shin-Yokohama", "name:ko": "\uc2e0\uc694\ucf54\ud558\ub9c8", "name:ru": "\u0421\u0438\u043d-\u0418\u043e\u043a\u043e\u0433\u0430\u043c\u0430", "name:uk": "\u0421\u0456\u043d-\u0419\u043e\u043a\u043e\u0445\u0430\u043c\u0430", "public_transport": "station", "railway": "station", "ref": "JH16", "source": "KSJ2", "wikidata": "Q801437", "wikipedia": "ja:\u65b0\u6a2a\u6d5c\u99c5"}}, {"type": "node", "id": 3651186393, "lat": 35.5169105, "lon": 139.4814366, "tags": {"name": "\u3059\u305a\u304b\u3051\u53f0", "name:en": "Suzukakedai", "name:ja": "\u3059\u305a\u304b\u3051\u53f0", "name:ja-Hira": "\u3059\u305a\u304b\u3051\u3060\u3044", "public_transport": "station", "railway": "station", "train": "yes", "wikidata": "Q7651185", "wikipedia": "ja:\u3059\u305a\u304b\u3051\u53f0\u99c5"}}, {"type": "node", "id": 3651186932, "lat": 35.5276368, "lon": 139.4851103, "tags": {"KSJ2:LIN": "\u7530\u5712\u90fd\u5e02\u7dda", "name": "\u3064\u304f\u3057\u91ce", "name:en": "Tsukushino", "name:ja": "\u3064\u304f\u3057\u91ce", "name:ja_kana": "\u3064\u304f\u3057\u306e", "name:ja_rm": "Tsukushino", "name:ko": "\uc4f0\ucfe0\uc2dc\ub178", "name:ru": "\u0426\u0443\u043a\u0443\u0441\u0438\u043d\u043e", "note": "National-Land Numerical Information (Railway) 2007, MLIT Japan", "note:ja": "\u56fd\u571f\u6570\u5024\u60c5\u5831\uff08\u9244\u9053\u30c7\u30fc\u30bf\uff09\u5e73\u621019\u5e74\u3000\u56fd\u571f\u4ea4\u901a\u7701", "operator": "\u6771\u4eac\u6025\u884c\u96fb\u9244", "public_transport": "station", "railway": "station", "ref": "DT23", "source": "KSJ2", "source_ref": "http://nlftp.mlit.go.jp/ksj/jpgis/datalist/KsjTmplt-N02-v1_1.html", "train": "yes", "wikidata": "Q7850118", "wikipedia": "ja:\u3064\u304f\u3057\u91ce\u99c5"}}, {"type": "node", "id": 3708276983, "lat": 35.4466889, "lon": 139.5997021, "tags": {"name": "\u4fdd\u571f\u30f6\u8c37", "name:en": "Hodogaya", "name:fr": "Hodogaya", "name:ja": "\u4fdd\u571f\u30f6\u8c37", "name:ja_kana": "\u307b\u3069\u304c\u3084", "name:ja_rm": "Hodogaya", "name:ko": "\ud638\ub3c4\uac00\uc57c", "operator": "\u6771\u65e5\u672c\u65c5\u5ba2\u9244\u9053", "public_transport": "station", "railway": "station", "ref": "JO12;JS12", "wikidata": "Q844185", "wikipedia": "ja:\u4fdd\u571f\u30b1\u8c37\u99c5"}}, {"type": "node", "id": 3741112665, "lat": 35.3654383, "lon": 139.6429378, "tags": {"light_rail": "yes", "name": "\u4e26\u6728\u4e2d\u592e", "name:en": "Namiki-Chuo", "name:ja": "\u4e26\u6728\u4e2d\u592e", "name:ja_kana": "\u306a\u307f\u304d\u3061\u3085\u3046\u304a\u3046", "name:ja_rm": "Namiki ch\u016b\u014d", "name:ko": "\ub098\ubbf8\ud0a4\ucd94\uc624", "public_transport": "station", "railway": "station", "ref": "5", "source": "KSJ2", "source_ref": "http://nlftp.mlit.go.jp/ksj/jpgis/datalist/KsjTmplt-N02-v1_1.html", "station": "light_rail", "wikidata": "Q6961853", "wikipedia": "ja:\u4e26\u6728\u4e2d\u592e\u99c5"}}, {"type": "node", "id": 3741112666, "lat": 35.371877, "lon": 139.642701, "tags": {"light_rail": "yes", "name": "\u4e26\u6728\u5317", "name:en": "Namiki-Kita", "name:es": "Namiki-Kita", "name:ja": "\u4e26\u6728\u5317", "name:ja_kana": "\u306a\u307f\u304d\u304d\u305f", "name:ja_rm": "Namiki kita", "name:ko": "\ub098\ubbf8\ud0a4\ud0a4\ud0c0", "public_transport": "station", "railway": "station", "ref": "4", "source": "KSJ2", "source_ref": "http://nlftp.mlit.go.jp/ksj/jpgis/datalist/KsjTmplt-N02-v1_1.html", "station": "light_rail", "wikidata": "Q6961854", "wikipedia": "ja:\u4e26\u6728\u5317\u99c5"}}, {"type": "node", "id": 3741112672, "lat": 35.3439482, "lon": 139.6501527, "tags": {"alt_name": "\u30cb\u30c3\u30d1\u30c4\u524d", "light_rail": "yes", "name": "\u5e02\u5927\u533b\u5b66\u90e8", "name:en": "Shidai-Igakubu", "name:ja": "\u5e02\u5927\u533b\u5b66\u90e8", "name:ja_kana": "\u3057\u3060\u3044\u3044\u304c\u304f\u3076", "name:ja_rm": "Shidai igakubu", "name:ko": "\uc2dc\ub2e4\uc774\uc774\uac00\ucfe0\ubd80", "public_transport": "station", "railway": "station", "ref": "9", "source": "KSJ2", "source_ref": "http://nlftp.mlit.go.jp/ksj/jpgis/datalist/KsjTmplt-N02-v1_1.html", "station": "light_rail", "wikidata": "Q7496125", "wikipedia": "ja:\u5e02\u5927\u533b\u5b66\u90e8\u99c5"}}, {"type": "node", "id": 3741112678, "lat": 35.3860018, "lon": 139.6204103, "tags": {"light_rail": "yes", "name": "\u65b0\u6749\u7530", "name:en": "Shin-Sugita", "name:es": "Shin-Sugita", "name:ja": "\u65b0\u6749\u7530", "name:ja_kana": "\u3057\u3093\u3059\u304e\u305f", "name:ja_rm": "Shin Sugita", "name:ko": "\uc2e0\uc2a4\uae30\ud0c0", "public_transport": "station", "railway": "station", "ref": "1", "station": "light_rail", "toilets:wheelchair": "no", "wheelchair": "limited", "wikidata": "Q844465", "wikipedia": "ja:\u65b0\u6749\u7530\u99c5"}}, {"type": "node", "id": 3741112687, "lat": 35.3305191, "lon": 139.6314529, "tags": {"alt_name:ko": "\ub178\uc9c0\ub9c8\ucf54\uc5d4", "light_rail": "yes", "name": "\u91ce\u5cf6\u516c\u5712", "name:en": "Nojimakoen", "name:es": "Nojimakoen", "name:ja": "\u91ce\u5cf6\u516c\u5712", "name:ja_kana": "\u306e\u3058\u307e\u3053\u3046\u3048\u3093", "name:ja_rm": "Nojima k\u014den", "name:ko": "\ub178\uc9c0\ub9c8\uacf5\uc6d0", "operator": "\u6a2a\u6d5c\u30b7\u30fc\u30b5\u30a4\u30c9\u30e9\u30a4\u30f3", "public_transport": "station", "railway": "station", "ref": "13", "source": "KSJ2", "source_ref": "http://nlftp.mlit.go.jp/ksj/jpgis/datalist/KsjTmplt-N02-v1_1.html", "station": "light_rail", "wikidata": "Q7047813", "wikipedia": "ja:\u91ce\u5cf6\u516c\u5712\u99c5"}}, {"type": "node", "id": 3741112689, "lat": 35.3315684, "lon": 139.6208936, "tags": {"light_rail": "yes", "name": "\u91d1\u6ca2\u516b\u666f", "name:en": "Kanazawa-Hakkei", "name:ja": "\u91d1\u6ca2\u516b\u666f", "name:ja_kana": "\u304b\u306a\u3056\u308f\u306f\u3063\u3051\u3044", "name:ja_rm": "Kanazawa hakkei", "name:ko": "\uac00\ub098\uc790\uc640\ud56b\ucf00\uc774", "operator": "\u6a2a\u6d5c\u30b7\u30fc\u30b5\u30a4\u30c9\u30e9\u30a4\u30f3", "phone": "+81 45 7865030", "public_transport": "station", "railway": "station", "ref": "14", "source": "KSJ2", "source_ref": "http://nlftp.mlit.go.jp/ksj/jpgis/datalist/KsjTmplt-N02-v1_1.html", "station": "light_rail", "website": "https://www.seasideline.co.jp/station_guide/kanazawa_hakkei/", "wikidata": "Q6360870", "wikipedia": "ja:\u91d1\u6ca2\u516b\u666f\u99c5"}}, {"type": "node", "id": 3995909013, "lat": 35.4272033, "lon": 139.6462837, "tags": {"name": "\u5c71\u624b", "name:en": "Yamate", "name:ja": "\u5c71\u624b", "name:ja_kana": "\u3084\u307e\u3066", "name:ja_rm": "Yamate", "name:ko": "\uc57c\ub9c8\ud14c", "note": "National-Land Numerical Information (Railway) 2007, MLIT Japan", "operator": "\u6771\u65e5\u672c\u65c5\u5ba2\u9244\u9053", "public_transport": "station", "railway": "station", "source": "KSJ2", "source_ref": "http://nlftp.mlit.go.jp/ksj/jpgis/datalist/KsjTmplt-N02-v1_1.html", "wheelchair": "yes", "wikidata": "Q801651", "wikipedia": "ja:\u5c71\u624b\u99c5"}}, {"type": "node", "id": 3995909014, "lat": 35.386554, "lon": 139.6195735, "tags": {"name": "\u65b0\u6749\u7530", "name:en": "Shin-Sugita", "name:ja": "\u65b0\u6749\u7530", "name:ja_kana": "\u3057\u3093\u3059\u304e\u305f", "name:ja_rm": "Shin Sugita", "name:ko": "\uc2e0\uc2a4\uae30\ud0c0", "operator": "\u6771\u65e5\u672c\u65c5\u5ba2\u9244\u9053", "public_transport": "station", "railway": "station", "source": "KSJ2", "source_ref": "http://nlftp.mlit.go.jp/ksj/jpgis/datalist/KsjTmplt-N02-v1_1.html", "wikidata": "Q844465", "wikipedia": "ja:\u65b0\u6749\u7530\u99c5"}}, {"type": "node", "id": 3995909015, "lat": 35.3674374, "lon": 139.5503004, "tags": {"name": "\u672c\u90f7\u53f0", "name:en": "Hongodai", "name:ja": "\u672c\u90f7\u53f0", "name:ja_kana": "\u307b\u3093\u3054\u3046\u3060\u3044", "name:ja_rm": "Hong\u014ddai", "name:ko": "\ud63c\uace0\ub2e4\uc774", "operator": "\u6771\u65e5\u672c\u65c5\u5ba2\u9244\u9053", "public_transport": "station", "railway": "station", "source": "KSJ2", "source_ref": "http://nlftp.mlit.go.jp/ksj/jpgis/datalist/KsjTmplt-N02-v1_1.html", "wikidata": "Q844379", "wikipedia": "ja:\u672c\u90f7\u53f0\u99c5"}}, {"type": "node", "id": 3995909016, "lat": 35.4156572, "lon": 139.6350502, "tags": {"name": "\u6839\u5cb8", "name:en": "Negishi", "name:es": "Negishi", "name:ja": "\u6839\u5cb8", "name:ja-Hira": "\u306d\u304e\u3057", "name:ja-Latn": "Negishi", "name:ko": "\ub124\uae30\uc2dc", "operator": "\u6771\u65e5\u672c\u65c5\u5ba2\u9244\u9053", "public_transport": "station", "railway": "station", "source": "KSJ2", "source_ref": "http://nlftp.mlit.go.jp/ksj/jpgis/datalist/KsjTmplt-N02-v1_1.html", "wikidata": "Q801241", "wikipedia": "ja:\u6839\u5cb8\u99c5 (\u795e\u5948\u5ddd\u770c)"}}, {"type": "node", "id": 3995909017, "lat": 35.4656854, "lon": 139.6225042, "tags": {"name": "\u6a2a\u6d5c", "name:de": "Yokohama", "name:en": "Yokohama", "name:es": "Yokohama", "name:it": "Yokohama", "name:ja": "\u6a2a\u6d5c (\u6771\u65e5\u672c\u65c5\u5ba2\u9244\u9053)", "name:ja-Hira": "\u3088\u3053\u306f\u307e", "name:ja-Latn": "Yokohama", "name:ko": "\uc694\ucf54\ud558\ub9c8", "name:ru": "\u0419\u043e\u043a\u043e\u0433\u0430\u043c\u0430", "note": "National-Land Numerical Information (Railway) 2007, MLIT Japan", "public_transport": "station", "railway": "station", "ref": "YHM", "source": "KSJ2", "source_ref": "http://nlftp.mlit.go.jp/ksj/jpgis/datalist/KsjTmplt-N02-v1_1.html", "wheelchair": "yes", "wikidata": "Q801658", "wikipedia": "ja:\u6a2a\u6d5c\u99c5"}}, {"type": "node", "id": 3995909018, "lat": 35.3786975, "lon": 139.5964654, "tags": {"name": "\u6d0b\u5149\u53f0", "name:en": "Yokodai", "name:ja": "\u6d0b\u5149\u53f0", "name:ja_kana": "\u3088\u3046\u3053\u3046\u3060\u3044", "name:ja_rm": "Y\u014dk\u014ddai", "name:ko": "\uc694\ucf54\ub2e4\uc774", "operator": "\u6771\u65e5\u672c\u65c5\u5ba2\u9244\u9053", "public_transport": "station", "railway": "station", "source": "KSJ2", "source_ref": "http://nlftp.mlit.go.jp/ksj/jpgis/datalist/KsjTmplt-N02-v1_1.html", "wikidata": "Q844428", "wikipedia": "ja:\u6d0b\u5149\u53f0\u99c5"}}, {"type": "node", "id": 3995909019, "lat": 35.3752947, "lon": 139.5766957, "tags": {"air_conditioning": "no", "internet_access": "no", "name": "\u6e2f\u5357\u53f0", "name:en": "Konandai", "name:ja": "\u6e2f\u5357\u53f0", "name:ja_kana": "\u3053\u3046\u306a\u3093\u3060\u3044", "name:ja_rm": "K\u014dnandai", "name:ko": "\uace0\ub09c\ub2e4\uc774", "operator": "\u6771\u65e5\u672c\u65c5\u5ba2\u9244\u9053", "public_transport": "station", "railway": "station", "source": "KSJ2", "source_ref": "http://nlftp.mlit.go.jp/ksj/jpgis/datalist/KsjTmplt-N02-v1_1.html", "start_date": "1973-10-3", "wheelchair": "yes", "wikidata": "Q844457", "wikipedia": "ja:\u6e2f\u5357\u53f0\u99c5"}}, {"type": "node", "id": 3995909020, "lat": 35.4001372, "lon": 139.6181583, "tags": {"name": "\u78ef\u5b50", "name:en": "Isogo", "name:ja": "\u78ef\u5b50", "name:ja_kana": "\u3044\u305d\u3054", "name:ja_rm": "Isogo", "name:ko": "\uc774\uc18c\uace0", "operator": "\u6771\u65e5\u672c\u65c5\u5ba2\u9244\u9053", "public_transport": "station", "railway": "station", "source": "KSJ2", "source_ref": "http://nlftp.mlit.go.jp/ksj/jpgis/datalist/KsjTmplt-N02-v1_1.html", "wikidata": "Q79378", "wikipedia": "ja:\u78ef\u5b50\u99c5"}}, {"type": "node", "id": 4011643455, "lat": 35.4005483, "lon": 139.534215, "tags": {"name": "\u6238\u585a", "name:de": "Totsuka", "name:en": "Totsuka", "name:fr": "Totsuka", "name:ja": "\u6238\u585a", "name:ja-Hira": "\u3068\u3064\u304b", "name:ja_rm": "Totsuka", "name:ko": "\ub3c4\uc4f0\uce74", "name:ru": "\u0422\u043e\u0446\u0443\u043a\u0430", "public_transport": "station", "railway": "station", "ref": "JT-06", "wikidata": "Q801522", "wikipedia": "ja:\u6238\u585a\u99c5"}}, {"type": "node", "id": 5227138561, "lat": 35.5533142, "lon": 139.578635, "tags": {"alt_name": "\u30e2\u30b6\u30a4\u30af\u30e2\u30fc\u30eb\u6e2f\u5317\u524d", "name": "\u30bb\u30f3\u30bf\u30fc\u5317", "name:en": "Center Kita", "name:ja": "\u30bb\u30f3\u30bf\u30fc\u5317", "name:ja-Hira": "\u305b\u3093\u305f\u30fc\u304d\u305f", "name:ja_rm": "Sent\u0101 kita", "name:ko": "\uc13c\ud130\uae30\ud0c0", "network": "\u6a2a\u6d5c\u5e02\u55b6\u5730\u4e0b\u9244", "operator": "\u6a2a\u6d5c\u5e02\u4ea4\u901a\u5c40", "public_transport": "station", "railway": "station", "ref": "G05", "station": "subway", "subway": "yes", "wheelchair": "yes", "wikidata": "Q847363", "wikipedia": "ja:\u30bb\u30f3\u30bf\u30fc\u5317\u99c5"}}, {"type": "node", "id": 5227138562, "lat": 35.5452895, "lon": 139.5746375, "tags": {"name": "\u30bb\u30f3\u30bf\u30fc\u5357", "name:en": "Center Minami", "name:es": "Center Minami", "name:ja": "\u30bb\u30f3\u30bf\u30fc\u5357", "name:ja-Hira": "\u305b\u3093\u305f\u30fc\u307f\u306a\u307f", "name:ja_kana": "\u305b\u3093\u305f\u30fc\u307f\u306a\u307f", "name:ja_rm": "Sent\u0101 minami", "name:ko": "\uc13c\ud130\ubbf8\ub098\ubbf8", "network": "\u6a2a\u6d5c\u5e02\u55b6\u5730\u4e0b\u9244", "note": "National-Land Numerical Information (Railway) 2007, MLIT Japan", "operator": "\u6a2a\u6d5c\u5e02\u4ea4\u901a\u5c40", "public_transport": "station", "railway": "station", "ref": "G04", "source": "KSJ2", "station": "subway", "subway": "yes", "wheelchair": "yes", "wikidata": "Q844629", "wikipedia": "ja:\u30bb\u30f3\u30bf\u30fc\u5357\u99c5"}}, {"type": "node", "id": 5454949004, "lat": 35.4011996, "lon": 139.5911667, "tags": {"name": "\u6e2f\u5357\u4e2d\u592e", "name:en": "Konan-chuo", "name:es": "Konan-chuo", "name:ja-Hira": "\u3053\u3046\u306a\u3093\u3061\u3085\u3046\u304a\u3046", "public_transport": "station", "railway": "station", "station": "subway", "subway": "yes", "wikidata": "Q573434"}}, {"type": "node", "id": 5591788441, "lat": 35.4090326, "lon": 139.5959771, "tags": {"name": "\u4e0a\u5927\u5ca1", "name:en": "Kamiooka", "name:ja": "\u4e0a\u5927\u5ca1", "name:ja-Hira": "\u304b\u307f\u304a\u304a\u304a\u304b", "name:ja_kana": "\u304b\u307f\u304a\u304a\u304a\u304b", "name:ja_rm": "Kami\u014doka", "name:ko": "\uac00\ubbf8\uc624\uc624\uce74", "network": "\u6a2a\u6d5c\u5e02\u55b6\u5730\u4e0b\u9244", "operator": "\u6a2a\u6d5c\u5e02\u4ea4\u901a\u5c40", "public_transport": "station", "railway": "station", "ref": "B11", "source": "KSJ2", "source_ref": "http://nlftp.mlit.go.jp/ksj/jpgis/datalist/KsjTmplt-N02-v1_1.html", "station": "subway", "subway": "yes", "wikidata": "Q865627", "wikipedia": "ja:\u4e0a\u5927\u5ca1\u99c5"}}, {"type": "node", "id": 5591788444, "lat": 35.4056591, "lon": 139.5185313, "tags": {"KSJ2:LIN": "1\u53f7\u7dda", "KSJ2:STN": "\u8e0a\u5834", "name": "\u8e0a\u5834", "name:en": "Odoriba", "name:ja": "\u8e0a\u5834", "name:ja-Hira": "\u304a\u3069\u308a\u3070", "name:ja_rm": "Odoriba", "name:ko": "\uc624\ub3c4\ub9ac\ubc14", "note": "National-Land Numerical Information (Railway) 2007, MLIT Japan", "note:ja": "\u56fd\u571f\u6570\u5024\u60c5\u5831\uff08\u9244\u9053\u30c7\u30fc\u30bf\uff09\u5e73\u621019\u5e74\u3000\u56fd\u571f\u4ea4\u901a\u7701", "operator": "\u6a2a\u6d5c\u5e02\u4ea4\u901a\u5c40", "railway": "station", "ref": "B05", "source": "KSJ2", "source_ref": "http://nlftp.mlit.go.jp/ksj/jpgis/datalist/KsjTmplt-N02-v1_1.html", "station": "subway", "wikidata": "Q852877", "wikipedia": "ja:\u8e0a\u5834\u99c5"}}, {"type": "node", "id": 5591788445, "lat": 35.4024586, "lon": 139.5509416, "tags": {"name": "\u821e\u5ca1", "name:en": "Maioka", "name:es": "Maioka", "name:ja": "\u821e\u5ca1", "name:ja-Hira": "\u307e\u3044\u304a\u304b", "name:ko": "\ub9c8\uc774\uc624\uce74", "operator": "\u6a2a\u6d5c\u5e02\u4ea4\u901a\u5c40", "public_transport": "station", "railway": "station", "source": "KSJ2", "source_ref": "http://nlftp.mlit.go.jp/ksj/jpgis/datalist/KsjTmplt-N02-v1_1.html", "station": "subway", "subway": "yes", "website": "https://navi.hamabus.city.yokohama.lg.jp/koutuu/pc/detail/Station?id=00007982", "wikidata": "Q904116", "wikipedia": "ja:\u821e\u5ca1\u99c5"}}, {"type": "node", "id": 5591788446, "lat": 35.4025885, "lon": 139.5594212, "tags": {"name": "\u4e0b\u6c38\u8c37", "name:en": "Shimonagaya", "name:es": "Shimonagaya", "name:ja": "\u4e0b\u6c38\u8c37", "name:ja-Hira": "\u3057\u3082\u306a\u304c\u3084", "name:ko": "\uc2dc\ubaa8\ub098\uac00\uc57c", "operator": "\u6a2a\u6d5c\u5e02\u4ea4\u901a\u5c40", "public_transport": "station", "railway": "station", "source": "KSJ2", "source_ref": "http://nlftp.mlit.go.jp/ksj/jpgis/datalist/KsjTmplt-N02-v1_1.html", "station": "subway", "subway": "yes", "wikidata": "Q579066", "wikipedia": "ja:\u4e0b\u6c38\u8c37\u99c5"}}, {"type": "node", "id": 6054866431, "lat": 35.3770641, "lon": 139.6417394, "tags": {"light_rail": "yes", "name": "\u9ce5\u6d5c", "name:en": "Torihama", "name:es": "Torihama", "name:ja": "\u9ce5\u6d5c", "name:ja_kana": "\u3068\u308a\u306f\u307e", "name:ja_rm": "Torihama", "name:ko": "\ub3c4\ub9ac\ud558\ub9c8", "public_transport": "station", "railway": "station", "ref": "3", "source": "KSJ2", "source_ref": "http://nlftp.mlit.go.jp/ksj/jpgis/datalist/KsjTmplt-N02-v1_1.html", "station": "light_rail", "toilets:wheelchair": "yes", "wheelchair": "yes", "wikidata": "Q7825788", "wikipedia": "ja:\u9ce5\u6d5c\u99c5"}}, {"type": "node", "id": 6054869524, "lat": 35.3801794, "lon": 139.6332331, "tags": {"light_rail": "yes", "name": "\u5357\u90e8\u5e02\u5834", "name:en": "Nambu-Shijo", "name:es": "Nambu-Shijo", "name:ja": "\u5357\u90e8\u5e02\u5834", "name:ja_kana": "\u306a\u3093\u3076\u3057\u3058\u3087\u3046", "name:ja_rm": "Nambu shij\u014d", "name:ko": "\ub09c\ubd80\uc2dc\uc870", "public_transport": "station", "railway": "station", "ref": "2", "station": "light_rail", "wikidata": "Q11408539", "wikipedia": "ja:\u5357\u90e8\u5e02\u5834\u99c5"}}, {"type": "node", "id": 6131416650, "lat": 35.5534689, "lon": 139.6468752, "tags": {"name": "\u65e5\u5409", "name:en": "Hiyoshi", "name:es": "Hiyoshi", "name:ja": "\u65e5\u5409", "name:ja_kana": "\u3072\u3088\u3057", "name:ja_rm": "Hiyoshi", "name:ko": "\ud788\uc694\uc2dc", "operator": "\u6771\u6025\u96fb\u9244", "public_transport": "station", "railway": "station", "ref": "TY13;MG13;SH03", "wheelchair": "yes", "wikidata": "Q390392", "wikipedia": "ja:\u65e5\u5409\u99c5 (\u795e\u5948\u5ddd\u770c)"}}, {"type": "node", "id": 6254629280, "lat": 35.5367416, "lon": 139.634683, "tags": {"name": "\u7db1\u5cf6", "name:en": "Tsunashima", "name:es": "Tsunashima", "name:ja": "\u7db1\u5cf6", "name:ja_kana": "\u3064\u306a\u3057\u307e", "name:ja_rm": "Tsunashima", "name:ko": "\uc4f0\ub098\uc2dc\ub9c8", "operator": "\u6771\u4eac\u6025\u884c\u96fb\u9244", "public_transport": "station", "railway": "station", "ref": "TY14", "train": "yes", "wheelchair": "yes", "wikidata": "Q7937387", "wikipedia": "ja:\u7db1\u5cf6\u99c5"}}, {"type": "node", "id": 6254638463, "lat": 35.5103853, "lon": 139.6313313, "tags": {"name": "\u83ca\u540d", "name:en": "Kikuna", "name:ja": "\u83ca\u540d", "name:ja_kana": "\u304d\u304f\u306a", "name:ja_rm": "Kikuna", "name:ko": "\uae30\ucfe0\ub098", "operator": "\u6771\u4eac\u6025\u884c\u96fb\u9244", "public_transport": "station", "railway": "station", "ref": "TY16", "train": "yes", "wikidata": "Q801006", "wikipedia": "ja:\u83ca\u540d\u99c5"}}, {"type": "node", "id": 6254641022, "lat": 35.4896753, "lon": 139.6279215, "tags": {"name": "\u767d\u697d", "name:en": "Hakuraku", "name:ja": "\u767d\u697d", "name:ja_kana": "\u306f\u304f\u3089\u304f", "name:ja_rm": "Hakuraku", "name:ko": "\ud558\ucfe0\ub77c\ucfe0", "operator": "\u6771\u4eac\u6025\u884c\u96fb\u9244", "public_transport": "station", "railway": "station", "ref": "TY18", "source": "survey, bing", "train": "yes", "wikidata": "Q5640648", "wikipedia": "ja:\u767d\u697d\u99c5"}}, {"type": "node", "id": 6254645691, "lat": 35.4832475, "lon": 139.6294747, "tags": {"light_rail": "yes", "name": "\u6771\u767d\u697d", "name:en": "Higashi-hakuraku", "name:ja": "\u6771\u767d\u697d", "name:ja_kana": "\u3072\u304c\u3057\u306f\u304f\u3089\u304f", "name:ja_rm": "Higashi Hakuraku", "name:ko": "\ud788\uac00\uc2dc\ud558\ucfe0\ub77c\ucfe0", "operator": "\u6771\u4eac\u6025\u884c\u96fb\u9244", "public_transport": "station", "railway": "station", "ref": "TY19", "station": "light_rail", "train": "yes", "wikidata": "Q5753538", "wikipedia": "ja:\u6771\u767d\u697d\u99c5"}}, {"type": "node", "id": 6312494437, "lat": 35.5310375, "lon": 139.6845061}, {"type": "node", "id": 6312494438, "lat": 35.5310894, "lon": 139.6844845}, {"type": "node", "id": 6312494439, "lat": 35.5311161, "lon": 139.6844148}, {"type": "node", "id": 6312494440, "lat": 35.5311237, "lon": 139.6844423}, {"type": "node", "id": 6312494441, "lat": 35.531023, "lon": 139.6844536}, {"type": "node", "id": 6312494442, "lat": 35.5311136, "lon": 139.6845719}, {"type": "node", "id": 6312494443, "lat": 35.531275, "lon": 139.6845047}, {"type": "node", "id": 6312494444, "lat": 35.531244, "lon": 139.6843922}, {"type": "node", "id": 6449745750, "lat": 35.5390249, "lon": 139.6805815, "tags": {"name": "\u77e2\u5411", "name:en": "Yako", "name:ja": "\u77e2\u5411", "name:ja-Latn": "Yak\u014d", "name:ja_kana": "\u3084\u3053\u3046", "name:ko": "\uc57c\ucf54", "public_transport": "station", "railway": "station", "source": "KSJ2", "wikidata": "Q5367593", "wikipedia": "ja:\u77e2\u5411\u99c5"}}, {"type": "node", "id": 6545240354, "lat": 35.3454627, "lon": 139.5293762, "tags": {"monorail": "yes", "name": "\u5bcc\u58eb\u898b\u753a", "name:en": "Fujimicho", "name:ja": "\u5bcc\u58eb\u898b\u753a", "name:ja_kana": "\u3075\u3058\u307f\u3061\u3087\u3046", "name:ja_rm": "Fujimich\u014d", "name:ko": "\ud6c4\uc9c0\ubbf8\ucd08", "operator": "\u6e58\u5357\u30e2\u30ce\u30ec\u30fc\u30eb", "public_transport": "station", "railway": "station", "source": "KSJ2", "source_ref": "http://nlftp.mlit.go.jp/ksj/jpgis/datalist/KsjTmplt-N02-v1_1.html", "station": "monorail", "wikidata": "Q1094940", "wikipedia": "ja:\u5bcc\u58eb\u898b\u753a\u99c5 (\u795e\u5948\u5ddd\u770c)"}}, {"type": "node", "id": 6545240356, "lat": 35.3523864, "lon": 139.5313546, "tags": {"monorail": "yes", "name": "\u5927\u8239", "name:en": "\u014cfuna", "name:ja": "\u5927\u8239", "name:ja_kana": "\u304a\u304a\u3075\u306a", "name:ja_rm": "\u014cfuna", "operator": "\u6e58\u5357\u30e2\u30ce\u30ec\u30fc\u30eb", "public_transport": "station", "railway": "station", "station": "monorail"}}, {"type": "node", "id": 6679881387, "lat": 35.4812012, "lon": 139.5861148, "tags": {"name": "\u7fbd\u6ca2\u6a2a\u6d5c\u56fd\u5927", "name:de": "Hazawa yokohama-kokudai", "name:en": "Hazawa yokohama-kokudai", "name:ja": "\u7fbd\u6ca2\u6a2a\u6d5c\u56fd\u5927", "name:ja-Hira": "\u306f\u3056\u308f\u3088\u3053\u306f\u307e\u3053\u304f\u3060\u3044", "name:kr": "\ud558\uc790\uc640\uc694\ucf54\ud558\ub9c8\ucf54\ucfe0\ub2e4\uc774", "name:zh": "\u7fbd\u6cfd\u6a2a\u6ee8\u56fd\u5927", "operator": "\u76f8\u6a21\u9244\u9053;\u6771\u65e5\u672c\u65c5\u5ba2\u9244\u9053", "public_transport": "station", "railway": "station", "ref": "SO51", "start_date": "2019-11-30", "wikidata": "Q48755701", "wikipedia": "ja:\u7fbd\u6ca2\u6a2a\u6d5c\u56fd\u5927\u99c5", "wikipedia:en": "Hazawa_Yokohama-Kokudai_Station"}}, {"type": "node", "id": 6802293266, "lat": 35.5513481, "lon": 139.5412811, "tags": {"name": "\u5e02\u304c\u5c3e", "name:en": "Ichigao", "name:ja": "\u5e02\u304c\u5c3e", "name:ja-Hira": "\u3044\u3061\u304c\u304a", "name:ja-Latn": "Ichigao", "name:ko": "\uc774\uce58\uac00\uc624", "name:ru": "\u0418\u0442\u0438\u0433\u0430\u043e", "note": "National-Land Numerical Information (Railway) 2007, MLIT Japan", "operator": "\u6771\u6025\u96fb\u9244", "public_transport": "station", "railway": "station", "ref": "DT18", "source": "KSJ2", "source_ref": "http://nlftp.mlit.go.jp/ksj/jpgis/datalist/KsjTmplt-N02-v1_1.html", "train": "yes", "wheelchair": "yes", "wikidata": "Q11479967", "wikipedia": "ja:\u5e02\u304c\u5c3e\u99c5"}}, {"type": "node", "id": 6802306080, "lat": 35.5775269, "lon": 139.5588739, "tags": {"name": "\u305f\u307e\u30d7\u30e9\u30fc\u30b6", "name:en": "Tama-plaza", "name:ja": "\u305f\u307e\u30d7\u30e9\u30fc\u30b6", "name:ja-Hira": "\u305f\u307e\u3077\u3089\u30fc\u3056", "name:ja-Latn": "Tamapuraza", "name:ko": "\ub2e4\ub9c8 \uad11\uc7a5", "name:ru": "\u0422\u0430\u043c\u0430-\u041f\u043b\u0430\u0437\u0430", "name:zh": "\u591a\u6469\u5ee3\u5834", "note": "National-Land Numerical Information (Railway) 2007, MLIT Japan", "operator": "\u6771\u6025\u96fb\u9244", "public_transport": "station", "railway": "station", "ref": "DT15", "source": "KSJ2", "source_ref": "http://nlftp.mlit.go.jp/ksj/jpgis/datalist/KsjTmplt-N02-v1_1.html", "train": "yes", "wikidata": "Q3299307", "wikipedia": "ja:\u305f\u307e\u30d7\u30e9\u30fc\u30b6\u99c5"}}, {"type": "node", "id": 6802316527, "lat": 35.5686778, "lon": 139.5534305, "tags": {"name": "\u3042\u3056\u307f\u91ce", "name:en": "Azamino", "name:ja": "\u3042\u3056\u307f\u91ce", "name:ja-Latn": "\u3042\u3056\u307f\u306e", "name:ko": "\uc544\uc790\ubbf8\ub178", "name:ru": "\u0410\u0434\u0437\u0430\u043c\u0438\u043d\u043e", "note": "National-Land Numerical Information (Railway) 2007, MLIT Japan", "operator": "\u6771\u6025\u96fb\u9244", "public_transport": "station", "railway": "station", "ref": "DT16", "source": "KSJ2", "source_ref": "http://nlftp.mlit.go.jp/ksj/jpgis/datalist/KsjTmplt-N02-v1_1.html", "toilets:wheelchair": "yes", "train": "yes", "wikidata": "Q852232", "wikipedia": "ja:\u3042\u3056\u307f\u91ce\u99c5"}}, {"type": "node", "id": 6802356976, "lat": 35.5794438, "lon": 139.572855, "tags": {"name": "\u9dfa\u6cbc", "name:en": "Saginuma", "name:ja": "\u9dfa\u6cbc", "name:ja_kana": "\u3055\u304e\u306c\u307e", "name:ja_rm": "Saginuma", "name:ko": "\uc0ac\uae30\ub204\ub9c8", "name:ru": "\u0421\u0430\u0433\u0438\u043d\u0443\u043c\u0430", "note": "National-Land Numerical Information (Railway) 2007, MLIT Japan", "operator": "\u6771\u6025\u96fb\u9244", "public_transport": "station", "railway": "station", "source_ref": "http://nlftp.mlit.go.jp/ksj/jpgis/datalist/KsjTmplt-N02-v1_1.html", "toilets:wheelchair": "yes", "train": "yes", "wheelchair": "yes", "wheelchair:description": "\u8c37\u306e\u30db\u30fc\u30e0\u304b\u3089\u3001\u30a8\u30ec\u30d9\u30fc\u30bf\u30fc\u3067\u6539\u672d\u968e\u3078\u6607\u308b\u3002\u30c9\u30a2\u306f\u300190cm\u5e45\u306e\u51fa\u5165\u308a\u53e3\uff11\u65b9\u5411\u3001\u8eca\u6905\u5b50\u7528\u64cd\u4f5c\u5353\u3002 \u3000\u591a\u76ee\u7684\u30c8\u30a4\u30ec\uff11\u3064\u304c\u3001\u6539\u672d\u968e\u306b\u3002 \u3000\u5317\u6539\u672d\u306f\u3001\u6539\u672d\u3092\u51fa\u3067\u3066\u3082\u3059\u3050\u306b\u8eca\u9053\u3078\u306e\u30a2\u30af\u30bb\u30b9\u4e0d\u53ef\u3002\u5317\u6539\u672d\u306f\u3001\u5de6\u624b\u304b\u3089\u53f3\u624b\u3078\u306e\u4e0b\u308a\u5742\u306b\u9762\u3057\u3001\u8170\u9ad8\u306e\u67f5\u304c\u6b69\u9053\u3068\u8eca\u9053\u3092\u4ed5\u5207\u308b\u3002\u3053\u306e\u305f\u3081\u3001\u8eca\u9053\u306b\u51fa\u308b\u306b\u306f\u3001\u6b69\u9053\u3092\u3057\u3070\u3089\u304f\u4e0b\u308b\u304b\u4e0a\u308b\u304b\u3057\u306a\u3044\u3002 \u3000\u4e2d\u592e\u6539\u672d\u306f\u3001\u5e73\u5766\u306a\u307e\u307e\u3001\u30bf\u30af\u30b7\u30fc\u4e57\u308a\u5834\u3084\u30d0\u30b9\u505c\u7559\u6240\u304c\u3042\u308b\u30ed\u30fc\u30bf\u30ea\u30fc\u306b\u51fa\u3089\u308c\u308b\u3002\u4e21\u6539\u672d\u3068\u3082\u3001\u30ef\u30a4\u30c9\u6539\u672d\u6a5f\u3042\u308a\u3002", "wikidata": "Q7399289", "wikipedia": "ja:\u9dfa\u6cbc\u99c5"}}, {"type": "node", "id": 6985700703, "lat": 35.5115009, "lon": 139.4707911, "tags": {"name": "\u5357\u753a\u7530\u30b0\u30e9\u30f3\u30d9\u30ea\u30fc\u30d1\u30fc\u30af", "name:en": "Minami-machida Grandberry Park", "name:ja": "\u5357\u753a\u7530\u30b0\u30e9\u30f3\u30d9\u30ea\u30fc\u30d1\u30fc\u30af", "name:ja_kana": "\u307f\u306a\u307f\u307e\u3061\u3060\u3050\u3089\u3093\u3079\u308a\u30fc\u3071\u30fc\u304f", "operator": "\u6771\u6025\u96fb\u9244", "public_transport": "station", "railway": "station", "ref": "DT25", "train": "yes", "wikidata": "Q6862943", "wikipedia": "ja:\u5357\u753a\u7530\u30b0\u30e9\u30f3\u30d9\u30ea\u30fc\u30d1\u30fc\u30af\u99c5"}}, {"type": "node", "id": 7047979337, "lat": 35.4392259, "lon": 139.6427467, "tags": {"name": "\u77f3\u5ddd\u753a", "name:en": "Ishikawacho", "name:es": "Ishikawacho", "name:fr": "Ishikawacho", "name:ja": "\u77f3\u5ddd\u753a", "name:ja_kana": "\u3044\u3057\u304b\u308f\u3061\u3087\u3046", "name:ja_rm": "Ishikawach\u014d", "name:ko": "\uc774\uc2dc\uce74\uc640\ucd08", "note": "National-Land Numerical Information (Railway) 2007, MLIT Japan", "operator": "\u6771\u65e5\u672c\u65c5\u5ba2\u9244\u9053", "public_transport": "station", "railway": "station", "source": "KSJ2", "source_ref": "http://nlftp.mlit.go.jp/ksj/jpgis/datalist/KsjTmplt-N02-v1_1.html", "wikidata": "Q800960", "wikipedia": "ja:\u77f3\u5ddd\u753a\u99c5"}}, {"type": "node", "id": 7048013177, "lat": 35.4440822, "lon": 139.6360365, "tags": {"name": "\u95a2\u5185", "name:en": "Kannai", "name:ja": "\u95a2\u5185", "name:ja-Hira": "\u304b\u3093\u306a\u3044", "name:ja_kana": "\u304b\u3093\u306a\u3044", "name:ja_rm": "Kan-nai", "name:ko": "\uac04\ub098\uc774", "note": "National-Land Numerical Information (Railway) 2007, MLIT Japan", "operator": "\u6771\u65e5\u672c\u65c5\u5ba2\u9244\u9053", "public_transport": "station", "railway": "station", "source": "KSJ2", "source_ref": "http://nlftp.mlit.go.jp/ksj/jpgis/datalist/KsjTmplt-N02-v1_1.html", "wikidata": "Q800982", "wikipedia": "ja:\u95a2\u5185\u99c5"}}, {"type": "node", "id": 7096836747, "lat": 35.5434977, "lon": 139.527979, "tags": {"name": "\u85e4\u304c\u4e18", "name:en": "Fujigaoka", "name:ja": "\u85e4\u304c\u4e18", "name:ja_kana": "\u3075\u3058\u304c\u304a\u304b", "name:ja_rm": "Fujigaoka", "name:ko": "\ud6c4\uc9c0\uac00\uc624\uce74", "name:ru": "\u0424\u0443\u0434\u0437\u0438\u0433\u0430\u043e\u043a\u0430", "note": "National-Land Numerical Information (Railway) 2007, MLIT Japan", "operator": "\u6771\u4eac\u6025\u884c\u96fb\u9244", "public_transport": "station", "railway": "station", "ref": "DT19", "source": "KSJ2", "source_ref": "http://nlftp.mlit.go.jp/ksj/jpgis/datalist/KsjTmplt-N02-v1_1.html", "wikidata": "Q5366756", "wikipedia": "ja:\u85e4\u304c\u4e18\u99c5 (\u795e\u5948\u5ddd\u770c)"}}, {"type": "node", "id": 7096971520, "lat": 35.5362568, "lon": 139.5049076, "tags": {"name": "\u7530\u5948", "name:en": "Tana", "name:ja": "\u7530\u5948", "name:ja_kana": "\u305f\u306a", "name:ja_rm": "Tana", "name:ko": "\ub2e4\ub098", "name:ru": "\u0422\u0430\u043d\u0430", "operator": "\u6771\u4eac\u6025\u884c\u96fb\u9244", "public_transport": "station", "railway": "station", "ref": "DT21", "source": "KSJ2", "train": "yes", "wikidata": "Q7682183", "wikipedia": "ja:\u7530\u5948\u99c5"}}, {"type": "node", "id": 7601088838, "lat": 35.5353094, "lon": 139.5896008, "tags": {"name": "\u4ef2\u753a\u53f0", "name:en": "Nakamachidai", "name:ja": "\u4ef2\u753a\u53f0", "name:ja-Hira": "\u306a\u304b\u307e\u3061\u3060\u3044", "name:ja_kana": "\u306a\u304b\u307e\u3061\u3060\u3044", "name:ja_rm": "Nakamachidai", "name:ko": "\ub098\uce74\ub9c8\uce58\ub2e4\uc774", "network": "\u6a2a\u6d5c\u5e02\u55b6\u5730\u4e0b\u9244", "note": "National-Land Numerical Information (Railway) 2007, MLIT Japan", "operator": "\u6a2a\u6d5c\u5e02\u4ea4\u901a\u5c40", "public_transport": "station", "railway": "station", "ref": "B28", "source": "KSJ2", "station": "subway", "subway": "yes", "wikidata": "Q851025", "wikipedia": "ja:\u4ef2\u753a\u53f0\u99c5"}}, {"type": "node", "id": 7601112409, "lat": 35.4141489, "lon": 139.4998428}, {"type": "node", "id": 7601112410, "lat": 35.4141899, "lon": 139.5001317}, {"type": "node", "id": 7601112411, "lat": 35.414173, "lon": 139.5001356}, {"type": "node", "id": 7601112412, "lat": 35.4141291, "lon": 139.4998473}, {"type": "node", "id": 7601120732, "lat": 35.4142695, "lon": 139.5001991, "tags": {"KSJ2:LIN": "1\u53f7\u7dda", "KSJ2:STN": "\u7acb\u5834", "name": "\u7acb\u5834", "name:en": "Tateba", "name:ja": "\u7acb\u5834", "name:ja-Hira": "\u305f\u3066\u3070", "name:ja_rm": "Tateba", "name:ko": "\ub2e4\ud14c\ubc14", "note": "National-Land Numerical Information (Railway) 2007, MLIT Japan", "note:ja": "\u56fd\u571f\u6570\u5024\u60c5\u5831\uff08\u9244\u9053\u30c7\u30fc\u30bf\uff09\u5e73\u621019\u5e74\u3000\u56fd\u571f\u4ea4\u901a\u7701", "operator": "\u6a2a\u6d5c\u5e02\u4ea4\u901a\u5c40", "public_transport": "station", "railway": "station", "source": "KSJ2", "source_ref": "http://nlftp.mlit.go.jp/ksj/jpgis/datalist/KsjTmplt-N02-v1_1.html", "station": "subway", "subway": "yes", "wikidata": "Q573441", "wikipedia": "ja:\u7acb\u5834\u99c5"}}, {"type": "node", "id": 7601124723, "lat": 35.4034432, "lon": 139.4832081, "tags": {"KSJ2:LIN": "1\u53f7\u7dda", "KSJ2:STN": "\u4e0b\u98ef\u7530", "name": "\u4e0b\u98ef\u7530", "name:en": "Shimoiida", "name:ja": "\u4e0b\u98ef\u7530", "name:ja-Hira": "\u3057\u3082\u3044\u3044\u3060", "name:ja_rm": "Shimo Iida", "name:ko": "\uc2dc\ubaa8\uc774\ub2e4", "note": "National-Land Numerical Information (Railway) 2007, MLIT Japan", "note:ja": "\u56fd\u571f\u6570\u5024\u60c5\u5831\uff08\u9244\u9053\u30c7\u30fc\u30bf\uff09\u5e73\u621019\u5e74\u3000\u56fd\u571f\u4ea4\u901a\u7701", "operator": "\u6a2a\u6d5c\u5e02\u4ea4\u901a\u5c40", "platforms": "2", "public_transport": "station", "railway": "station", "ref": "B02", "source": "KSJ2", "source_ref": "http://nlftp.mlit.go.jp/ksj/jpgis/datalist/KsjTmplt-N02-v1_1.html", "station": "subway", "subway": "yes", "wikidata": "Q573742", "wikipedia": "ja:\u4e0b\u98ef\u7530\u99c5"}}, {"type": "node", "id": 7749849503, "lat": 35.5680456, "lon": 139.5536107, "tags": {"baby_feeding": "room", "name": "\u3042\u3056\u307f\u91ce", "name:en": "Azamino", "name:ja": "\u3042\u3056\u307f\u91ce", "name:ja-Hira": "\u3042\u3056\u307f\u306e", "name:ja-Latn": "Azamino", "name:ko": "\uc544\uc790\ubbf8\ub178", "network": "\u6a2a\u6d5c\u5e02\u55b6\u5730\u4e0b\u9244", "network:wikidata": "Q1341305", "note": "National-Land Numerical Information (Railway) 2007, MLIT Japan", "operator": "\u6a2a\u6d5c\u5e02\u4ea4\u901a\u5c40", "operator:type": "public", "operator:wikidata": "Q8015416", "public_transport": "station", "railway": "station", "ref": "B32", "source": "KSJ2", "source_ref": "http://nlftp.mlit.go.jp/ksj/jpgis/datalist/KsjTmplt-N02-v1_1.html", "station": "subway", "subway": "yes", "toilets:wheelchair": "yes", "wheelchair": "yes", "wikidata": "Q852232", "wikipedia": "ja:\u3042\u3056\u307f\u91ce\u99c5"}}, {"type": "node", "id": 7749865377, "lat": 35.4011056, "lon": 139.5350787, "tags": {"name": "\u6238\u585a", "name:en": "Totsuka", "name:es": "Totsuka", "name:ja": "\u6238\u585a", "name:ja-Hira": "\u3068\u3064\u304b", "name:ja_kana": "\u3068\u3064\u304b", "name:ja_rm": "Totsuka", "name:ko": "\ub3c4\uc4f0\uce74", "operator": "\u6a2a\u6d5c\u5e02\u4ea4\u901a\u5c40", "public_transport": "station", "railway": "station", "ref": "B06", "source": "KSJ2", "source_ref": "http://nlftp.mlit.go.jp/ksj/jpgis/datalist/KsjTmplt-N02-v1_1.html", "station": "subway", "subway": "yes", "wikidata": "Q801522", "wikipedia": "ja:\u6238\u585a\u99c5"}}, {"type": "node", "id": 7749865378, "lat": 35.4111454, "lon": 139.5113307, "tags": {"KSJ2:LIN": "1\u53f7\u7dda", "KSJ2:STN": "\u4e2d\u7530", "name": "\u4e2d\u7530", "name:en": "Nakada", "name:ja": "\u4e2d\u7530", "name:ja-Hira": "\u306a\u304b\u3060", "name:ja_rm": "Nakada", "name:ko": "\ub098\uce74\ub2e4", "note": "National-Land Numerical Information (Railway) 2007, MLIT Japan", "note:ja": "\u56fd\u571f\u6570\u5024\u60c5\u5831\uff08\u9244\u9053\u30c7\u30fc\u30bf\uff09\u5e73\u621019\u5e74\u3000\u56fd\u571f\u4ea4\u901a\u7701", "operator": "\u6a2a\u6d5c\u5e02\u4ea4\u901a\u5c40", "public_transport": "station", "railway": "station", "source": "KSJ2", "source_ref": "http://nlftp.mlit.go.jp/ksj/jpgis/datalist/KsjTmplt-N02-v1_1.html", "station": "subway", "wikidata": "Q573641", "wikipedia": "ja:\u4e2d\u7530\u99c5 (\u795e\u5948\u5ddd\u770c)"}}, {"type": "node", "id": 7749869512, "lat": 35.5629066, "lon": 139.5699517, "tags": {"alt_name": "\u6771\u4eac\u90fd\u5e02\u5927 \u6a2a\u6d5c\u30ad\u30e3\u30f3\u30d1\u30b9\u524d", "name": "\u4e2d\u5ddd", "name:en": "Nakagawa", "name:ja": "\u4e2d\u5ddd", "name:ja-Hira": "\u306a\u304b\u304c\u308f", "name:ko": "\ub098\uce74\uac00\uc640", "network": "\u6a2a\u6d5c\u5e02\u55b6\u5730\u4e0b\u9244", "note": "National-Land Numerical Information (Railway) 2007, MLIT Japan", "operator": "\u6a2a\u6d5c\u5e02\u4ea4\u901a\u5c40", "platforms": "2", "public_transport": "station", "railway": "station", "ref": "B31", "source": "KSJ2", "source_ref": "http://nlftp.mlit.go.jp/ksj/jpgis/datalist/KsjTmplt-N02-v1_1.html", "station": "subway", "subway": "yes", "wikidata": "Q573443", "wikipedia": "ja:\u4e2d\u5ddd\u99c5 (\u795e\u5948\u5ddd\u770c)"}}, {"type": "node", "id": 7750187059, "lat": 35.5274961, "lon": 139.6120343, "tags": {"name": "\u65b0\u7fbd", "name:en": "Nippa", "name:ja": "\u65b0\u7fbd", "name:ja-Hira": "\u306b\u3063\u3071", "name:ja_kana": "\u306b\u3063\u3071", "name:ja_rm": "Nippa", "name:ko": "\ub2db\ud30c", "network": "\u6a2a\u6d5c\u5e02\u55b6\u5730\u4e0b\u9244", "note": "National-Land Numerical Information (Railway) 2007, MLIT Japan", "operator": "\u6a2a\u6d5c\u5e02\u4ea4\u901a\u5c40", "public_transport": "station", "railway": "station", "ref": "B27", "source": "KSJ2", "station": "subway", "wheelchair": "yes", "wikidata": "Q841479", "wikipedia": "ja:\u65b0\u7fbd\u99c5"}}, {"type": "node", "id": 7750187061, "lat": 35.5454101, "lon": 139.5742694, "tags": {"name": "\u30bb\u30f3\u30bf\u30fc\u5357", "name:en": "Center Minami", "name:es": "Center Minami", "name:ja": "\u30bb\u30f3\u30bf\u30fc\u5357", "name:ja-Hira": "\u305b\u3093\u305f\u30fc\u307f\u306a\u307f", "name:ja_kana": "\u305b\u3093\u305f\u30fc\u307f\u306a\u307f", "name:ja_rm": "Sent\u0101 minami", "name:ko": "\uc13c\ud130\ubbf8\ub098\ubbf8", "network": "\u6a2a\u6d5c\u5e02\u55b6\u5730\u4e0b\u9244", "note": "National-Land Numerical Information (Railway) 2007, MLIT Japan", "operator": "\u6a2a\u6d5c\u5e02\u4ea4\u901a\u5c40", "public_transport": "station", "railway": "station", "ref": "B29", "source": "KSJ2", "station": "subway", "subway": "yes", "wheelchair": "yes", "wikidata": "Q844629", "wikipedia": "ja:\u30bb\u30f3\u30bf\u30fc\u5357\u99c5"}}, {"type": "node", "id": 7750247043, "lat": 35.429909, "lon": 139.6099757, "tags": {"name": "\u8494\u7530", "name:en": "Maita", "name:ja": "\u8494\u7530", "name:ja-Hira": "\u307e\u3044\u305f", "name:ja_kana": "\u307e\u3044\u305f", "name:ja_rm": "Maita", "name:ko": "\ub9c8\uc774\ud0c0", "network": "\u6a2a\u6d5c\u5e02\u55b6\u5730\u4e0b\u9244", "note": "National-Land Numerical Information (Railway) 2007, MLIT Japan", "operator": "\u6a2a\u6d5c\u5e02\u4ea4\u901a\u5c40", "public_transport": "station", "railway": "station", "ref": "B13", "source": "KSJ2", "source_ref": "http://nlftp.mlit.go.jp/ksj/jpgis/datalist/KsjTmplt-N02-v1_1.html", "station": "subway", "wikidata": "Q579091", "wikipedia": "ja:\u8494\u7530\u99c5"}}, {"type": "node", "id": 7750247044, "lat": 35.4232893, "lon": 139.6020598, "tags": {"name": "\u5f18\u660e\u5bfa", "name:en": "Gumyoji", "name:es": "Gumyoji", "name:ja": "\u5f18\u660e\u5bfa", "name:ja-Hira": "\u3050\u307f\u3087\u3046\u3058", "name:ja_kana": "\u3050\u307f\u3087\u3046\u3058", "name:ja_rm": "Gumy\u014dji", "name:ko": "\uad6c\ubb18\uc9c0", "network": "\u6a2a\u6d5c\u5e02\u55b6\u5730\u4e0b\u9244", "note": "National-Land Numerical Information (Railway) 2007, MLIT Japan", "operator": "\u6a2a\u6d5c\u5e02\u4ea4\u901a\u5c40", "public_transport": "station", "railway": "station", "ref": "B12", "source": "KSJ2", "source_ref": "http://nlftp.mlit.go.jp/ksj/jpgis/datalist/KsjTmplt-N02-v1_1.html", "station": "subway", "wikidata": "Q580349", "wikipedia": "ja:\u5f18\u660e\u5bfa\u99c5 (\u6a2a\u6d5c\u5e02\u55b6\u5730\u4e0b\u9244)"}}, {"type": "node", "id": 7750247045, "lat": 35.5088883, "lon": 139.6173113, "tags": {"alt_name": "\u30d3\u30c3\u30af\u30ab\u30e1\u30e9 \u65b0\u6a2a\u6d5c\u5e97\u524d", "name": "\u65b0\u6a2a\u6d5c", "name:en": "Shin-yokohama", "name:ja": "\u65b0\u6a2a\u6d5c", "name:ja-Hira": "\u3057\u3093\u3088\u3053\u306f\u307e", "name:ja_kana": "\u3057\u3093\u3088\u3053\u306f\u307e", "name:ja_rm": "Shin Yokohama", "name:ko": "\uc2e0\uc694\ucf54\ud558\ub9c8", "network": "\u6a2a\u6d5c\u5e02\u55b6\u5730\u4e0b\u9244", "operator": "\u6a2a\u6d5c\u5e02\u4ea4\u901a\u5c40", "public_transport": "station", "railway": "station", "ref": "B25", "source": "KSJ2", "station": "subway", "subway": "yes", "wikidata": "Q801437", "wikipedia": "ja:\u65b0\u6a2a\u6d5c\u99c5"}}, {"type": "node", "id": 7750247047, "lat": 35.5192766, "lon": 139.6128054, "tags": {"name": "\u5317\u65b0\u6a2a\u6d5c", "name:en": "Kita-shin-yokohama", "name:ja": "\u5317\u65b0\u6a2a\u6d5c", "name:ja-Hira": "\u304d\u305f\u3057\u3093\u3088\u3053\u306f\u307e", "name:ja_kana": "\u304d\u305f\u3057\u3093\u3088\u3053\u306f\u307e", "name:ja_rm": "Kita Shin Yokohama", "name:ko": "\uae30\ud0c0\uc2e0\uc694\ucf54\ud558\ub9c8", "network": "\u6a2a\u6d5c\u5e02\u55b6\u5730\u4e0b\u9244", "operator": "\u6a2a\u6d5c\u5e02\u4ea4\u901a\u5c40", "public_transport": "station", "railway": "station", "ref": "B26", "source": "KSJ2", "station": "subway", "wikidata": "Q852295", "wikipedia": "ja:\u5317\u65b0\u6a2a\u6d5c\u99c5"}}, {"type": "node", "id": 7750338822, "lat": 35.4584508, "lon": 139.6238581, "tags": {"name": "\u9ad8\u5cf6\u753a", "name:en": "Takashimacho", "name:ja": "\u9ad8\u5cf6\u753a", "name:ja-Hira": "\u305f\u304b\u3057\u307e\u3061\u3087\u3046", "name:ja_kana": "\u305f\u304b\u3057\u307e\u3061\u3087\u3046", "name:ja_rm": "Takashimach\u014d", "name:ko": "\ub2e4\uce74\uc2dc\ub9c8\ucd08", "network": "\u6a2a\u6d5c\u5e02\u55b6\u5730\u4e0b\u9244", "note": "National-Land Numerical Information (Railway) 2007, MLIT Japan", "operator": "\u6a2a\u6d5c\u5e02\u4ea4\u901a\u5c40", "public_transport": "station", "railway": "station", "ref": "B19", "source": "KSJ2", "source_ref": "http://nlftp.mlit.go.jp/ksj/jpgis/datalist/KsjTmplt-N02-v1_1.html", "station": "subway", "subway": "yes", "wikidata": "Q850673", "wikipedia": "ja:\u9ad8\u5cf6\u753a\u99c5"}}, {"type": "node", "id": 7750338823, "lat": 35.4496272, "lon": 139.630787, "tags": {"alt_name": "\u770c\u6c11\u5171\u6e08\u30d7\u30e9\u30b6\u524d", "name": "\u685c\u6728\u753a", "name:en": "Sakuragicho", "name:es": "Sakuragicho", "name:ja": "\u685c\u6728\u753a", "name:ja-Hira": "\u3055\u304f\u3089\u304e\u3061\u3087\u3046", "name:ja_kana": "\u3055\u304f\u3089\u304e\u3061\u3087\u3046", "name:ja_rm": "Sakuragicho", "name:ko": "\uc0ac\ucfe0\ub77c\uae30\ucd08", "network": "\u6a2a\u6d5c\u5e02\u55b6\u5730\u4e0b\u9244", "note": "National-Land Numerical Information (Railway) 2007, MLIT Japan", "operator": "\u6a2a\u6d5c\u5e02\u4ea4\u901a\u5c40", "public_transport": "station", "railway": "station", "ref": "B18", "source": "KSJ2", "source_ref": "http://nlftp.mlit.go.jp/ksj/jpgis/datalist/KsjTmplt-N02-v1_1.html", "station": "subway", "subway": "yes", "wikidata": "Q801396", "wikipedia": "ja:\u685c\u6728\u753a\u99c5"}}, {"type": "node", "id": 7750338824, "lat": 35.44533, "lon": 139.6367037, "tags": {"alt_name": "\u30ea\u30b9\u30c8\u672c\u793e\u524d", "name": "\u95a2\u5185", "name:en": "Kannai", "name:es": "Kannai", "name:ja": "\u95a2\u5185", "name:ja-Hira": "\u304b\u3093\u306a\u3044", "name:ja_kana": "\u304b\u3093\u306a\u3044", "name:ja_rm": "Kan-nai", "name:ko": "\uac04\ub098\uc774", "network": "\u6a2a\u6d5c\u5e02\u55b6\u5730\u4e0b\u9244", "note": "National-Land Numerical Information (Railway) 2007, MLIT Japan", "operator": "\u6a2a\u6d5c\u5e02\u4ea4\u901a\u5c40", "public_transport": "station", "railway": "station", "ref": "B17", "source": "KSJ2", "source_ref": "http://nlftp.mlit.go.jp/ksj/jpgis/datalist/KsjTmplt-N02-v1_1.html", "station": "subway", "subway": "yes", "wikidata": "Q800982", "wikipedia": "ja:\u95a2\u5185\u99c5"}}, {"type": "node", "id": 7750338825, "lat": 35.4410015, "lon": 139.6327993, "tags": {"name": "\u4f0a\u52e2\u4f50\u6728\u9577\u8005\u753a", "name:en": "Isezaki-chojamachi", "name:ja": "\u4f0a\u52e2\u4f50\u6728\u9577\u8005\u753a", "name:ja-Hira": "\u3044\u305b\u3056\u304d\u3061\u3087\u3046\u3058\u3083\u307e\u3061", "name:ja_kana": "\u3044\u305b\u3056\u304d\u3061\u3087\u3046\u3058\u3083\u307e\u3061", "name:ja_rm": "Isezaki Ch\u014djamachi", "name:ko": "\uc774\uc138\uc790\ud0a4\ucd08\uc790\ub9c8\uce58", "network": "\u6a2a\u6d5c\u5e02\u55b6\u5730\u4e0b\u9244", "note": "National-Land Numerical Information (Railway) 2007, MLIT Japan", "operator": "\u6a2a\u6d5c\u5e02\u4ea4\u901a\u5c40", "public_transport": "station", "railway": "station", "ref": "B16", "source": "KSJ2", "source_ref": "http://nlftp.mlit.go.jp/ksj/jpgis/datalist/KsjTmplt-N02-v1_1.html", "station": "subway", "wikidata": "Q841434", "wikipedia": "ja:\u4f0a\u52e2\u4f50\u6728\u9577\u8005\u753a\u99c5"}}, {"type": "node", "id": 7750338826, "lat": 35.4376268, "lon": 139.6251489, "tags": {"name": "\u962a\u6771\u6a4b", "name:en": "Bandobashi", "name:ja": "\u962a\u6771\u6a4b", "name:ja-Hira": "\u3070\u3093\u3069\u3046\u3070\u3057", "name:ja_kana": "\u3070\u3093\u3069\u3046\u3070\u3057", "name:ja_rm": "Band\u014dbashi", "name:ko": "\ubc18\ub3c4\ubc14\uc2dc", "network": "\u6a2a\u6d5c\u5e02\u55b6\u5730\u4e0b\u9244", "note": "National-Land Numerical Information (Railway) 2007, MLIT Japan", "operator": "\u6a2a\u6d5c\u5e02\u4ea4\u901a\u5c40", "public_transport": "station", "railway": "station", "ref": "B15", "source": "KSJ2", "source_ref": "http://nlftp.mlit.go.jp/ksj/jpgis/datalist/KsjTmplt-N02-v1_1.html", "station": "subway", "wikidata": "Q852854", "wikipedia": "ja:\u962a\u6771\u6a4b\u99c5"}}, {"type": "node", "id": 7750342739, "lat": 35.4961511, "lon": 139.6168238, "tags": {"alt_name:ko": "\uae30\uc2dc\ub124\ucf54\uc5d4", "layer": "-1", "name": "\u5cb8\u6839\u516c\u5712", "name:en": "Kishine-koen", "name:ja": "\u5cb8\u6839\u516c\u5712", "name:ja-Hira": "\u304d\u3057\u306d\u3053\u3046\u3048\u3093", "name:ja_rm": "Kishine k\u014den", "name:ko": "\uae30\uc2dc\ub124\uacf5\uc6d0", "operator": "\u6a2a\u6d5c\u5e02\u4ea4\u901a\u5c40", "public_transport": "station", "railway": "station", "ref": "B24", "source": "KSJ2", "station": "subway", "subway": "yes", "wikidata": "Q589898", "wikipedia": "ja:\u5cb8\u6839\u516c\u5712\u99c5"}}, {"type": "node", "id": 7750342740, "lat": 35.4764152, "lon": 139.6056459, "tags": {"name": "\u4e09\u30c4\u6ca2\u4e0a\u753a", "name:en": "Mitsuzawa-kamicho", "name:ja": "\u4e09\u30c4\u6ca2\u4e0a\u753a", "name:ja-Hira": "\u307f\u3064\u3056\u308f\u304b\u307f\u3061\u3087\u3046", "name:ja_kana": "\u307f\u3064\u3056\u308f\u304b\u307f\u3061\u3087\u3046", "name:ja_rm": "Mitsuzawa kamich\u014d", "name:ko": "\ubbf8\uc4f0\uc790\uc640\uce74\ubbf8\ucd08", "network": "\u6a2a\u6d5c\u5e02\u55b6\u5730\u4e0b\u9244", "note": "National-Land Numerical Information (Railway) 2007, MLIT Japan", "operator": "\u6a2a\u6d5c\u5e02\u4ea4\u901a\u5c40", "public_transport": "station", "railway": "station", "ref": "B22", "source": "KSJ2", "source_ref": "http://nlftp.mlit.go.jp/ksj/jpgis/datalist/KsjTmplt-N02-v1_1.html", "station": "subway", "wheelchair": "yes", "wikidata": "Q903553", "wikipedia": "ja:\u4e09\u30c4\u6ca2\u4e0a\u753a\u99c5"}}, {"type": "node", "id": 7750342741, "lat": 35.4900761, "lon": 139.6064834, "tags": {"name": "\u7247\u5009\u753a", "name:en": "Katakuracho", "name:ja": "\u7247\u5009\u753a", "name:ja-Hira": "\u304b\u305f\u304f\u3089\u3061\u3087\u3046", "name:ja_kana": "\u304b\u305f\u304f\u3089\u3061\u3087\u3046", "name:ja_rm": "Katakurach\u014d", "name:ko": "\uac00\ud0c0\ucfe0\ub77c\ucd08", "operator": "\u6a2a\u6d5c\u5e02\u4ea4\u901a\u5c40", "public_transport": "station", "railway": "station", "ref": "B23", "source": "KSJ2", "station": "subway", "wikidata": "Q589860", "wikipedia": "ja:\u7247\u5009\u753a\u99c5"}}, {"type": "node", "id": 7750342742, "lat": 35.4765085, "lon": 139.6160911, "tags": {"name": "\u4e09\u30c4\u6ca2\u4e0b\u753a", "name:en": "Mitsuzawa-shimocho", "name:ja": "\u4e09\u30c4\u6ca2\u4e0b\u753a", "name:ja-Hira": "\u307f\u3064\u3056\u308f\u3057\u3082\u3061\u3087\u3046", "name:ja_rm": "Mitsuzawa shimoch\u014d", "name:ko": "\ubbf8\uc4f0\uc790\uc640\uc2dc\ubaa8\ucd08", "network": "\u6a2a\u6d5c\u5e02\u55b6\u5730\u4e0b\u9244", "note": "National-Land Numerical Information (Railway) 2007, MLIT Japan", "operator": "\u6a2a\u6d5c\u5e02\u4ea4\u901a\u5c40", "public_transport": "station", "railway": "station", "ref": "B21", "source": "KSJ2", "source_ref": "http://nlftp.mlit.go.jp/ksj/jpgis/datalist/KsjTmplt-N02-v1_1.html", "station": "subway", "subway": "yes", "wikidata": "Q589920", "wikipedia": "ja:\u4e09\u30c4\u6ca2\u4e0b\u753a\u99c5"}}, {"type": "node", "id": 7750342743, "lat": 35.4653773, "lon": 139.6201667, "tags": {"alt_name": "\u76f8\u9244\u30b8\u30e7\u30a4\u30ca\u30b9\u524d", "name": "\u6a2a\u6d5c", "name:en": "Yokohama", "name:ja": "\u6a2a\u6d5c (\u6a2a\u6d5c\u5e02\u4ea4\u901a\u5c40)", "name:ja-Hira": "\u3088\u3053\u306f\u307e", "name:ja_kana": "\u3088\u3053\u306f\u307e", "name:ja_rm": "Yokohama", "name:ko": "\uc694\ucf54\ud558\ub9c8", "note": "National-Land Numerical Information (Railway) 2007, MLIT Japan", "operator": "\u6a2a\u6d5c\u5e02\u4ea4\u901a\u5c40", "public_transport": "station", "railway": "station", "ref": "B20", "source": "KSJ2", "source_ref": "http://nlftp.mlit.go.jp/ksj/jpgis/datalist/KsjTmplt-N02-v1_1.html", "station": "subway", "subway": "yes", "wikidata": "Q801658", "wikipedia": "ja:\u6a2a\u6d5c\u99c5"}}, {"type": "node", "id": 7750348391, "lat": 35.4354327, "lon": 139.618715, "tags": {"name": "\u5409\u91ce\u753a", "name:en": "Yoshinocho", "name:ja": "\u5409\u91ce\u753a", "name:ja-Hira": "\u3088\u3057\u306e\u3061\u3087\u3046", "name:ja_kana": "\u3088\u3057\u306e\u3061\u3087\u3046", "name:ja_rm": "Yoshinoch\u014d", "name:ko": "\uc694\uc2dc\ub178\ucd08", "network": "\u6a2a\u6d5c\u5e02\u55b6\u5730\u4e0b\u9244", "note": "National-Land Numerical Information (Railway) 2007, MLIT Japan", "operator": "\u6a2a\u6d5c\u5e02\u4ea4\u901a\u5c40", "public_transport": "station", "railway": "station", "ref": "B14", "source": "KSJ2", "source_ref": "http://nlftp.mlit.go.jp/ksj/jpgis/datalist/KsjTmplt-N02-v1_1.html", "station": "subway", "wikidata": "Q579077", "wikipedia": "ja:\u5409\u91ce\u753a\u99c5"}}, {"type": "node", "id": 7771245984, "lat": 35.5148049, "lon": 139.5401893, "tags": {"name": "\u4e2d\u5c71", "name:en": "Nakayama", "name:ja": "\u4e2d\u5c71", "name:ja_kana": "\u306a\u304b\u3084\u307e", "name:ja_rm": "Nakayama", "name:ko": "\ub098\uce74\uc57c\ub9c8", "network": "\u6a2a\u6d5c\u5e02\u55b6\u5730\u4e0b\u9244", "operator": "\u6a2a\u6d5c\u5e02\u4ea4\u901a\u5c40", "public_transport": "station", "railway": "station", "ref": "G01", "station": "subway", "subway": "yes", "wikidata": "Q844670", "wikipedia": "ja:\u4e2d\u5c71\u99c5 (\u795e\u5948\u5ddd\u770c)"}}, {"type": "node", "id": 7772733582, "lat": 35.5284609, "lon": 139.5491324, "tags": {"name": "\u5ddd\u548c\u753a", "name:en": "Kawawacho", "name:ja": "\u5ddd\u548c\u753a", "name:ja_kana": "\u304b\u308f\u308f\u3061\u3087\u3046", "name:ja_rm": "Kawawach\u014d", "name:ko": "\uac00\uc640\uc640\ucd08", "network": "\u6a2a\u6d5c\u5e02\u55b6\u5730\u4e0b\u9244", "operator": "\u6a2a\u6d5c\u5e02\u4ea4\u901a\u5c40", "public_transport": "station", "railway": "station", "ref": "G02", "station": "subway", "wikidata": "Q6379900", "wikipedia": "ja:\u5ddd\u548c\u753a\u99c5"}}, {"type": "node", "id": 7772737929, "lat": 35.5365578, "lon": 139.5612641, "tags": {"name": "\u90fd\u7b51\u3075\u308c\u3042\u3044\u306e\u4e18", "name:en": "Tsuzuki-fureainooka", "name:ja": "\u90fd\u7b51\u3075\u308c\u3042\u3044\u306e\u4e18", "name:ja_kana": "\u3064\u3065\u304d\u3075\u308c\u3042\u3044\u306e\u304a\u304b", "name:ja_rm": "Tsuzuki fureainooka", "name:ko": "\uc4f0\uc988\ud0a4\ud6c4\ub808\uc544\uc774\ub178\uc624\uce74", "network": "\u6a2a\u6d5c\u5e02\u55b6\u5730\u4e0b\u9244", "operator": "\u6a2a\u6d5c\u5e02\u4ea4\u901a\u5c40", "public_transport": "station", "railway": "station", "ref": "G03", "station": "subway", "subway": "yes", "wheelchair": "yes", "wikidata": "Q7850400", "wikipedia": "ja:\u90fd\u7b51\u3075\u308c\u3042\u3044\u306e\u4e18\u99c5"}}, {"type": "node", "id": 7772745205, "lat": 35.5534441, "lon": 139.6464819, "tags": {"name": "\u65e5\u5409", "name:en": "Hiyoshi", "name:ja": "\u65e5\u5409", "name:ja_kana": "\u3072\u3088\u3057", "name:ja_rm": "Hiyoshi", "name:ko": "\ud788\uc694\uc2dc", "network": "\u6a2a\u6d5c\u5e02\u55b6\u5730\u4e0b\u9244", "operator": "\u6a2a\u6d5c\u5e02\u4ea4\u901a\u5c40", "public_transport": "station", "railway": "station", "ref": "G10", "station": "subway", "subway": "yes", "wheelchair": "yes", "wikidata": "Q390392", "wikipedia": "ja:\u65e5\u5409\u99c5 (\u795e\u5948\u5ddd\u770c)"}}, {"type": "node", "id": 7772745206, "lat": 35.5500655, "lon": 139.6336227, "tags": {"name": "\u65e5\u5409\u672c\u753a", "name:en": "Hiyoshi-honcho", "name:ja": "\u65e5\u5409\u672c\u753a", "name:ja_kana": "\u3072\u3088\u3057\u307b\u3093\u3061\u3087\u3046", "name:ja_rm": "Hiyoshi honch\u014d", "name:ko": "\ud788\uc694\uc2dc\ud63c\ucd08", "network": "\u6a2a\u6d5c\u5e02\u55b6\u5730\u4e0b\u9244", "operator": "\u6a2a\u6d5c\u5e02\u4ea4\u901a\u5c40", "public_transport": "station", "railway": "station", "ref": "G09", "source": "Bing", "station": "subway", "wheelchair": "yes", "wikidata": "Q5872965", "wikipedia": "ja:\u65e5\u5409\u672c\u753a\u99c5"}}, {"type": "node", "id": 7772745207, "lat": 35.5496776, "lon": 139.6200521, "tags": {"line": "\u6a2a\u6d5c\u5e02\u55b6\u5730\u4e0b\u9244\u30b0\u30ea\u30fc\u30f3\u30e9\u30a4\u30f3", "name": "\u9ad8\u7530", "name:en": "Takata", "name:ja": "\u9ad8\u7530", "name:ja_kana": "\u305f\u304b\u305f", "name:ja_rm": "Takata", "name:ko": "\ub2e4\uce74\ud0c0", "network": "\u6a2a\u6d5c\u5e02\u55b6\u5730\u4e0b\u9244", "operator": "\u6a2a\u6d5c\u5e02\u4ea4\u901a\u5c40", "public_transport": "station", "railway": "station", "ref": "G08", "station": "subway", "wikidata": "Q7677418", "wikipedia": "ja:\u9ad8\u7530\u99c5 (\u795e\u5948\u5ddd\u770c)"}}, {"type": "node", "id": 7772745208, "lat": 35.554173, "lon": 139.6046897, "tags": {"name": "\u6771\u5c71\u7530", "name:en": "Higashi-yamata", "name:ja": "\u6771\u5c71\u7530", "name:ja_kana": "\u3072\u304c\u3057\u3084\u307e\u305f", "name:ja_rm": "Higashi Yamata", "name:ko": "\ud788\uac00\uc2dc\uc57c\ub9c8\ud0c0", "network": "\u6a2a\u6d5c\u5e02\u55b6\u5730\u4e0b\u9244", "operator": "\u6a2a\u6d5c\u5e02\u4ea4\u901a\u5c40", "public_transport": "station", "railway": "station", "ref": "G07", "station": "subway", "wikidata": "Q11103294", "wikipedia": "ja:\u6771\u5c71\u7530\u99c5"}}, {"type": "node", "id": 7772745209, "lat": 35.5610885, "lon": 139.5921504, "tags": {"name": "\u5317\u5c71\u7530", "name:en": "Kita-yamata", "name:ja": "\u5317\u5c71\u7530", "name:ja_kana": "\u304d\u305f\u3084\u307e\u305f", "name:ja_rm": "Kita Yamata", "name:ko": "\uae30\ud0c0\uc57c\ub9c8\ud0c0", "network": "\u6a2a\u6d5c\u5e02\u55b6\u5730\u4e0b\u9244", "operator": "\u6a2a\u6d5c\u5e02\u4ea4\u901a\u5c40", "public_transport": "station", "railway": "station", "ref": "G06", "station": "subway", "wikidata": "Q6417619", "wikipedia": "ja:\u5317\u5c71\u7530\u99c5 (\u795e\u5948\u5ddd\u770c)"}}, {"type": "node", "id": 7777531687, "lat": 35.3373128, "lon": 139.5452639, "tags": {"addr:city": "Kamakura", "name": "\u5317\u938c\u5009", "name:en": "Kita-Kamakura", "name:es": "Kita-Kamakura", "name:fr": "Kita-Kamakura", "name:ja": "\u5317\u938c\u5009", "name:ja_kana": "\u304d\u305f\u304b\u307e\u304f\u3089", "name:ja_rm": "Kita Kamakura", "name:ko": "\uae30\ud0c0\uce74\ub9c8\ucfe0\ub77c", "operator": "\u6771\u65e5\u672c\u65c5\u5ba2\u9244\u9053", "public_transport": "station", "railway": "station", "ref": "JO08;JS08", "source": "KSJ2", "source_ref": "http://nlftp.mlit.go.jp/ksj/jpgis/datalist/KsjTmplt-N02-v1_1.html", "train": "yes", "wikidata": "Q910286", "wikipedia": "ja:\u5317\u938c\u5009\u99c5"}}, {"type": "node", "id": 7804259443, "lat": 35.4642692, "lon": 139.6202973, "tags": {"name": "\u6a2a\u6d5c", "name:de": "Yokohama", "name:en": "Yokohama", "name:es": "Yokohama", "name:ja": "\u6a2a\u6d5c (\u76f8\u6a21\u9244\u9053)", "name:ja-Hira": "\u3088\u3053\u306f\u307e", "name:ja_rm": "Yokohama", "name:ko": "\uc694\ucf54\ud558\ub9c8", "name:ru": "\u0419\u043e\u043a\u043e\u0433\u0430\u043c\u0430", "operator": "\u76f8\u6a21\u9244\u9053", "platforms": "3", "public_transport": "station", "railway": "station", "ref": "SO01", "train": "yes"}}, {"type": "node", "id": 7834575755, "lat": 35.5229732, "lon": 139.6916994, "tags": {"name": "\u516b\u4e01\u7577", "name:en": "Hatchonawate", "public_transport": "station", "railway": "station", "ref": "JN51"}}, {"type": "node", "id": 7834575757, "lat": 35.5229568, "lon": 139.6913666, "tags": {"local_ref": "1", "name": "\u516b\u4e01\u7577", "name:en": "Hatchonawate", "public_transport": "lit", "railway": "station", "ref": "KK27", "wikidata": "Q5366338"}}, {"type": "node", "id": 7834937707, "lat": 35.5004391, "lon": 139.6729989, "tags": {"alt_name:ko": "\uac00\uac8c\uc4f0\uc5d4\ub9c8\uc5d0", "fixme": "\u97d3\u56fd\u8a9e\u3067\u300c\u7dcf\u6301\u5bfa\u300d\u3092\u3069\u3046\u8868\u8a18\u3059\u308b\u304b\u308f\u304b\u3089\u306a\u304b\u3063\u305f\u306e\u3067\u3001\u8a73\u3057\u3044\u65b9\u306fname:ko\u306e\u4fee\u6b63\u3092\u304a\u9858\u3044\u3057\u307e\u3059\u3002/I don't know how to spell \"Soujiji\" in Korean. Please fix name:ko tag.", "gauge": "1435", "name": "\u82b1\u6708\u7dcf\u6301\u5bfa", "name:en": "Kagetsu-Sojiji", "name:ja": "\u82b1\u6708\u7dcf\u6301\u5bfa", "name:ja_kana": "\u304b\u3052\u3064\u305d\u3046\u3058\u3058", "name:ja_rm": "Kagetsu-Sojiji", "name:ko": "\u3010fix me\u3011\uac00\uac8c\uc4f0\uc5d4\uc55e", "note": "National-Land Numerical Information (Railway) 2007, MLIT Japan", "old_name": "\u82b1\u6708\u5712\u524d", "operator": "\u4eac\u6d5c\u6025\u884c\u96fb\u9244", "operator:en": "Keikyu Corporation", "operator:ja": "\u4eac\u6d5c\u6025\u884c\u96fb\u9244", "public_transport": "station", "railway": "station", "ref": "KK30", "source": "Bing", "source_ref": "http://nlftp.mlit.go.jp/ksj/jpgis/datalist/KsjTmplt-N02-v1_1.html", "wikidata": "Q6346519", "wikipedia": "ja:\u82b1\u6708\u7dcf\u6301\u5bfa\u99c5"}}, {"type": "node", "id": 7834937709, "lat": 35.5072931, "lon": 139.6780206, "tags": {"gauge": "1435", "name": "\u4eac\u6025\u9db4\u898b", "name:en": "Keikyu Tsurumi", "name:ja": "\u4eac\u6025\u9db4\u898b", "name:ja_kana": "\u3051\u3044\u304d\u3085\u3046\u3064\u308b\u307f", "name:ja_rm": "Keiky\u016b Tsurumi", "name:ko": "\uac8c\uc774\ud050\uc4f0\ub8e8\ubbf8", "note": "National-Land Numerical Information (Railway) 2007, MLIT Japan", "operator": "\u4eac\u6d5c\u6025\u884c\u96fb\u9244", "operator:en": "Keikyu Corporation", "operator:ja": "\u4eac\u6d5c\u6025\u884c\u96fb\u9244", "public_transport": "station", "railway": "station", "ref": "KK29", "source": "Bing", "source_ref": "http://nlftp.mlit.go.jp/ksj/jpgis/datalist/KsjTmplt-N02-v1_1.html", "wikidata": "Q5366409", "wikipedia": "ja:\u4eac\u6025\u9db4\u898b\u99c5"}}, {"type": "node", "id": 7834937710, "lat": 35.5178357, "lon": 139.6866962, "tags": {"gauge": "1435", "name": "\u9db4\u898b\u5e02\u5834", "name:en": "Tsurumi-ichiba", "name:ja": "\u9db4\u898b\u5e02\u5834", "name:ja_kana": "\u3064\u308b\u307f\u3044\u3061\u3070", "name:ja_rm": "Tsurumi ichiba", "name:ko": "\uc4f0\ub8e8\ubbf8\uc774\uce58\ubc14", "note": "National-Land Numerical Information (Railway) 2007, MLIT Japan", "operator": "\u4eac\u6d5c\u6025\u884c\u96fb\u9244", "operator:en": "Keikyu Corporation", "operator:ja": "\u4eac\u6d5c\u6025\u884c\u96fb\u9244", "public_transport": "station", "railway": "station", "ref": "KK28", "source": "Bing", "source_ref": "http://nlftp.mlit.go.jp/ksj/jpgis/datalist/KsjTmplt-N02-v1_1.html", "wikidata": "Q5361946", "wikipedia": "ja:\u9db4\u898b\u5e02\u5834\u99c5"}}, {"type": "node", "id": 7856115775, "lat": 35.4421165, "lon": 139.6509129, "tags": {"alt_name": "\u5c71\u4e0b\u516c\u5712", "alt_name:en": "Yamashita-Koen", "name": "\u5143\u753a\u30fb\u4e2d\u83ef\u8857", "name:en": "Motomachi-chukagai", "name:es": "Motomachi-chukagai", "name:ja": "\u5143\u753a\u30fb\u4e2d\u83ef\u8857", "name:ja_kana": "\u3082\u3068\u307e\u3061\u30fb\u3061\u3085\u3046\u304b\u304c\u3044", "name:ja_rm": "Motomachi ch\u016bkagai", "name:ko": "\ubaa8\ud1a0\ub9c8\uce58\u00b7\uc8fc\uce74\uac00\uc774", "operator": "\u6a2a\u6d5c\u9ad8\u901f\u9244\u9053", "public_transport": "station", "railway": "station", "ref": "MM06", "train": "yes", "wikidata": "Q995359", "wikipedia": "ja:\u5143\u753a\u30fb\u4e2d\u83ef\u8857\u99c5"}}, {"type": "node", "id": 7856115776, "lat": 35.4467354, "lon": 139.6426718, "tags": {"alt_name": "\u770c\u5e81\u30fb\u5927\u3055\u3093\u6a4b", "alt_name:en": "Kencho-Osambashi", "name": "\u65e5\u672c\u5927\u901a\u308a", "name:en": "Nihon-odori", "name:ja": "\u65e5\u672c\u5927\u901a\u308a", "name:ja_kana": "\u306b\u307b\u3093\u304a\u304a\u3069\u304a\u308a", "name:ja_rm": "Nihon \u014dd\u014dri", "name:ko": "\ub2c8\ud63c\uc624\ub3c4\ub9ac", "note": "National-Land Numerical Information (Railway) 2007, MLIT Japan", "operator": "\u6a2a\u6d5c\u9ad8\u901f\u9244\u9053", "public_transport": "station", "railway": "station", "ref": "MM05", "source": "KSJ2", "source_ref": "http://nlftp.mlit.go.jp/ksj/jpgis/datalist/KsjTmplt-N02-v1_1.html", "train": "yes", "wikidata": "Q7034272", "wikipedia": "ja:\u65e5\u672c\u5927\u901a\u308a\u99c5"}}, {"type": "node", "id": 7856115777, "lat": 35.4501475, "lon": 139.6362973, "tags": {"name": "\u99ac\u8eca\u9053", "name:en": "Bashamichi", "name:es": "Bashamichi", "name:ja": "\u99ac\u8eca\u9053", "name:ja_kana": "\u3070\u3057\u3083\u307f\u3061", "name:ja_rm": "Bashamichi", "name:ko": "\ubc14\uc0e4\ubbf8\uce58", "note": "National-Land Numerical Information (Railway) 2007, MLIT Japan", "operator": "\u6a2a\u6d5c\u9ad8\u901f\u9244\u9053", "public_transport": "station", "railway": "station", "ref": "MM04", "source": "KSJ2", "source_ref": "http://nlftp.mlit.go.jp/ksj/jpgis/datalist/KsjTmplt-N02-v1_1.html", "train": "yes", "wheelchair": "yes", "wikidata": "Q4866771", "wikipedia": "ja:\u99ac\u8eca\u9053\u99c5"}}, {"type": "node", "id": 7856115778, "lat": 35.4572327, "lon": 139.6328453, "tags": {"name": "\u307f\u306a\u3068\u307f\u3089\u3044", "name:en": "Minatomirai", "name:ja": "\u307f\u306a\u3068\u307f\u3089\u3044", "name:ja_kana": "\u307f\u306a\u3068\u307f\u3089\u3044", "name:ja_rm": "Minatomirai", "name:ko": "\ubbf8\ub098\ud1a0\ubbf8\ub77c\uc774", "note": "National-Land Numerical Information (Railway) 2007, MLIT Japan", "operator": "\u6a2a\u6d5c\u9ad8\u901f\u9244\u9053", "public_transport": "station", "railway": "station", "ref": "MM03", "source": "KSJ2", "source_ref": "http://nlftp.mlit.go.jp/ksj/jpgis/datalist/KsjTmplt-N02-v1_1.html", "train": "yes", "wheelchair": "no", "wikidata": "Q3299269", "wikipedia": "ja:\u307f\u306a\u3068\u307f\u3089\u3044\u99c5"}}, {"type": "node", "id": 7856115779, "lat": 35.4619389, "lon": 139.6266407, "tags": {"name": "\u65b0\u9ad8\u5cf6", "name:en": "Shin-Takashima", "name:ja": "\u65b0\u9ad8\u5cf6", "name:ja_kana": "\u3057\u3093\u305f\u304b\u3057\u307e", "name:ja_rm": "Shin Takashima", "name:ko": "\uc2e0\ud0c0\uce74\uc2dc\ub9c8", "note": "National-Land Numerical Information (Railway) 2007, MLIT Japan", "operator": "\u6a2a\u6d5c\u9ad8\u901f\u9244\u9053", "public_transport": "station", "railway": "station", "ref": "MM02", "source": "KSJ2", "source_ref": "http://nlftp.mlit.go.jp/ksj/jpgis/datalist/KsjTmplt-N02-v1_1.html", "train": "yes", "wikidata": "Q854231", "wikipedia": "ja:\u65b0\u9ad8\u5cf6\u99c5"}}, {"type": "node", "id": 7856860987, "lat": 35.367138, "lon": 139.6297275, "tags": {"gauge": "1435", "name": "\u4eac\u6025\u5bcc\u5ca1", "name:en": "Keikyu Tomioka", "name:ja": "\u4eac\u6025\u5bcc\u5ca1", "name:ja_kana": "\u3051\u3044\u304d\u3085\u3046\u3068\u307f\u304a\u304b", "name:ja_rm": "Keiky\u016b Tomioka", "name:ko": "\uac8c\uc774\ud050\ub3c4\ubbf8\uc624\uce74", "operator": "\u4eac\u6d5c\u6025\u884c\u96fb\u9244 (Keikyu Corporation)", "operator:en": "Keikyu Corporation", "operator:ja": "\u4eac\u6d5c\u6025\u884c\u96fb\u9244", "public_transport": "station", "railway": "station", "ref": "KK47", "source": "KSJ2;Bing", "source_ref": "http://nlftp.mlit.go.jp/ksj/jpgis/datalist/KsjTmplt-N02-v1_1.html", "wikidata": "Q12060974", "wikipedia": "ja:\u4eac\u6025\u5bcc\u5ca1\u99c5"}}, {"type": "node", "id": 7856860988, "lat": 35.383564, "lon": 139.6158364, "tags": {"gauge": "1435", "name": "\u6749\u7530", "name:en": "Sugita", "name:ja": "\u6749\u7530", "name:ja_kana": "\u3059\u304e\u305f", "name:ja_rm": "Sugita", "name:ko": "\uc2a4\uae30\ud0c0", "operator": "\u4eac\u6d5c\u6025\u884c\u96fb\u9244 (Keikyu Corporation)", "operator:en": "Keikyu Corporation", "operator:ja": "\u4eac\u6d5c\u6025\u884c\u96fb\u9244", "public_transport": "station", "railway": "station", "ref": "KK46", "source": "Bing", "source_ref": "http://nlftp.mlit.go.jp/ksj/jpgis/datalist/KsjTmplt-N02-v1_1.html", "wheelchair": "yes", "wikidata": "Q7635125", "wikipedia": "ja:\u6749\u7530\u99c5 (\u795e\u5948\u5ddd\u770c)"}}, {"type": "node", "id": 7856860990, "lat": 35.3942114, "lon": 139.6103847, "tags": {"gauge": "1435", "name": "\u5c4f\u98a8\u6d66", "name:en": "Byobugaura", "name:ja": "\u5c4f\u98a8\u6d66", "name:ja_kana": "\u3073\u3087\u3046\u3076\u304c\u3046\u3089", "name:ja_rm": "By\u014dbugaura", "name:ko": "\ubd64\ubd80\uac00\uc6b0\ub77c", "operator": "\u4eac\u6d5c\u6025\u884c\u96fb\u9244 (Keikyu Corporation)", "operator:en": "Keikyu Corporation", "operator:ja": "\u4eac\u6d5c\u6025\u884c\u96fb\u9244", "public_transport": "station", "railway": "station", "ref": "KK45", "source": "Bing", "source_ref": "http://nlftp.mlit.go.jp/ksj/jpgis/datalist/KsjTmplt-N02-v1_1.html", "toilets:wheelchair": "yes", "wheelchair": "yes", "wikidata": "Q5004739", "wikipedia": "ja:\u5c4f\u98a8\u6d66\u99c5"}}, {"type": "node", "id": 7856860992, "lat": 35.4090607, "lon": 139.5966277, "tags": {"gauge": "1435", "name": "\u4e0a\u5927\u5ca1", "name:en": "Kamiooka", "name:ja": "\u4e0a\u5927\u5ca1", "name:ja-Hira": "\u304b\u307f\u304a\u304a\u304a\u304b", "name:ja_kana": "\u304b\u307f\u304a\u304a\u304a\u304b", "name:ja_rm": "Kami\u014doka", "name:ko": "\uac00\ubbf8\uc624\uc624\uce74", "operator": "\u4eac\u6d5c\u6025\u884c\u96fb\u9244", "operator:en": "Keikyu Corporation", "operator:ja": "\u4eac\u6d5c\u6025\u884c\u96fb\u9244", "public_transport": "station", "railway": "station", "ref": "KK44", "source": "Bing", "source_ref": "http://nlftp.mlit.go.jp/ksj/jpgis/datalist/KsjTmplt-N02-v1_1.html", "wikidata": "Q865627", "wikipedia": "ja:\u4e0a\u5927\u5ca1\u99c5"}}, {"type": "node", "id": 7856860996, "lat": 35.4243499, "lon": 139.5967939, "tags": {"gauge": "1435", "name": "\u5f18\u660e\u5bfa", "name:en": "Gumyoji", "name:ja": "\u5f18\u660e\u5bfa", "name:ja_kana": "\u3050\u307f\u3087\u3046\u3058", "name:ja_rm": "Gumy\u014dji", "name:ko": "\uad6c\ubb18\uc9c0", "note": "National-Land Numerical Information (Railway) 2007, MLIT Japan", "operator": "\u4eac\u6d5c\u6025\u884c\u96fb\u9244", "operator:en": "Keikyu Corporation", "operator:ja": "\u4eac\u6d5c\u6025\u884c\u96fb\u9244", "public_transport": "station", "railway": "station", "ref": "KK43", "source": "Bing", "source_ref": "http://nlftp.mlit.go.jp/ksj/jpgis/datalist/KsjTmplt-N02-v1_1.html", "wheelchair": "limited", "wikidata": "Q5362509", "wikipedia": "ja:\u5f18\u660e\u5bfa\u99c5 (\u4eac\u6025)"}}, {"type": "node", "id": 7856860997, "lat": 35.4339314, "lon": 139.6005383, "tags": {"gauge": "1435", "name": "\u4e95\u571f\u30f6\u8c37", "name:en": "Idogaya", "name:es": "Idogaya", "name:ja": "\u4e95\u571f\u30f6\u8c37", "name:ja_kana": "\u3044\u3069\u304c\u3084", "name:ja_rm": "Idogaya", "name:ko": "\uc774\ub3c4\uac00\uc57c", "note": "National-Land Numerical Information (Railway) 2007, MLIT Japan", "operator": "\u4eac\u6d5c\u6025\u884c\u96fb\u9244", "operator:en": "Keikyu Corporation", "operator:ja": "\u4eac\u6d5c\u6025\u884c\u96fb\u9244", "public_transport": "station", "railway": "station", "ref": "KK42", "source": "Bing", "source_ref": "http://nlftp.mlit.go.jp/ksj/jpgis/datalist/KsjTmplt-N02-v1_1.html", "wikidata": "Q5989285", "wikipedia": "ja:\u4e95\u571f\u30f6\u8c37\u99c5"}}, {"type": "node", "id": 7856860998, "lat": 35.4368194, "lon": 139.6131635, "tags": {"gauge": "1435", "name": "\u5357\u592a\u7530", "name:en": "Minamiota", "name:ja": "\u5357\u592a\u7530", "name:ja_kana": "\u307f\u306a\u307f\u304a\u304a\u305f", "name:ja_rm": "Minami \u014cta", "name:ko": "\ubbf8\ub098\ubbf8\uc624\ud0c0", "note": "National-Land Numerical Information (Railway) 2007, MLIT Japan", "operator": "\u4eac\u6d5c\u6025\u884c\u96fb\u9244", "operator:en": "Keikyu Corporation", "operator:ja": "\u4eac\u6d5c\u6025\u884c\u96fb\u9244", "public_transport": "station", "railway": "station", "ref": "KK41", "source": "Bing", "source_ref": "http://nlftp.mlit.go.jp/ksj/jpgis/datalist/KsjTmplt-N02-v1_1.html", "wheelchair": "yes", "wikidata": "Q6863036", "wikipedia": "ja:\u5357\u592a\u7530\u99c5"}}, {"type": "node", "id": 7856861001, "lat": 35.4399236, "lon": 139.623152, "tags": {"gauge": "1435", "name": "\u9ec4\u91d1\u753a", "name:en": "Koganecho", "name:ja": "\u9ec4\u91d1\u753a", "name:ja_kana": "\u3053\u304c\u306d\u3061\u3087\u3046", "name:ja_rm": "Koganech\u014d", "name:ko": "\uace0\uac00\ub124\ucd08", "note": "National-Land Numerical Information (Railway) 2007, MLIT Japan", "operator": "\u4eac\u6d5c\u6025\u884c\u96fb\u9244", "operator:en": "Keikyu Corporation", "operator:ja": "\u4eac\u6d5c\u6025\u884c\u96fb\u9244", "public_transport": "station", "railway": "station", "ref": "KK40", "source": "Bing", "source_ref": "http://nlftp.mlit.go.jp/ksj/jpgis/datalist/KsjTmplt-N02-v1_1.html", "wikidata": "Q6425766", "wikipedia": "ja:\u9ec4\u91d1\u753a\u99c5"}}, {"type": "node", "id": 7856861002, "lat": 35.4455466, "lon": 139.6267113, "tags": {"gauge": "1435", "name": "\u65e5\u30ce\u51fa\u753a", "name:en": "Hinodecho", "name:ja": "\u65e5\u30ce\u51fa\u753a", "name:ja_kana": "\u3072\u306e\u3067\u3061\u3087\u3046", "name:ja_rm": "Hinodech\u014d", "name:ko": "\ud788\ub178\ub370\ucd08", "note": "National-Land Numerical Information (Railway) 2007, MLIT Japan", "operator": "\u4eac\u6d5c\u6025\u884c\u96fb\u9244", "operator:en": "Keikyu Corporation", "operator:ja": "\u4eac\u6d5c\u6025\u884c\u96fb\u9244", "public_transport": "station", "railway": "station", "ref": "KK39", "source": "Bing", "source_ref": "http://nlftp.mlit.go.jp/ksj/jpgis/datalist/KsjTmplt-N02-v1_1.html", "wikidata": "Q5767411", "wikipedia": "ja:\u65e5\u30ce\u51fa\u753a\u99c5"}}, {"type": "node", "id": 7856861003, "lat": 35.4567461, "lon": 139.6195351, "tags": {"gauge": "1435", "name": "\u6238\u90e8", "name:en": "Tobe", "name:ja": "\u6238\u90e8", "name:ja_kana": "\u3068\u3079", "name:ja_rm": "Tobe", "name:ko": "\ub3c4\ubca0", "note": "National-Land Numerical Information (Railway) 2007, MLIT Japan", "operator": "\u4eac\u6d5c\u6025\u884c\u96fb\u9244", "operator:en": "Keikyu Corporation", "operator:ja": "\u4eac\u6d5c\u6025\u884c\u96fb\u9244", "public_transport": "station", "railway": "station", "ref": "KK38", "source": "Bing", "source_ref": "http://nlftp.mlit.go.jp/ksj/jpgis/datalist/KsjTmplt-N02-v1_1.html", "wikidata": "Q7811562", "wikipedia": "ja:\u6238\u90e8\u99c5"}}, {"type": "node", "id": 7856861004, "lat": 35.477267, "lon": 139.6345454, "tags": {"gauge": "1435", "name": "\u4eac\u6025\u6771\u795e\u5948\u5ddd", "name:en": "Keikyu Higashi-Kanagawa", "name:ja": "\u4eac\u6025\u6771\u795e\u5948\u5ddd", "name:ja-Kana": "\u3051\u3044\u304d\u3085\u3046\u3072\u304c\u3057\u304b\u306a\u304c\u308f", "name:ja-Latn": "Keiky\u016b Higashi-Kanagawa", "name:ko": "\uac8c\uc774\ud050 \ud788\uac00\uc2dc\uce74\ub098\uac00\uc640", "old_name": "\u4ef2\u6728\u6238", "operator": "\u4eac\u6d5c\u6025\u884c\u96fb\u9244", "operator:en": "Keikyu Corporation", "operator:ja": "\u4eac\u6d5c\u6025\u884c\u96fb\u9244", "public_transport": "station", "railway": "station", "ref": "KK35", "source": "Bing", "wikidata": "Q6960205", "wikipedia": "ja:\u4eac\u6025\u6771\u795e\u5948\u5ddd\u99c5"}}, {"type": "node", "id": 7857902092, "lat": 35.3608505, "lon": 139.6294203, "tags": {"gauge": "1435", "name": "\u80fd\u898b\u53f0", "name:en": "Nokendai", "name:ja": "\u80fd\u898b\u53f0", "name:ja_kana": "\u306e\u3046\u3051\u3093\u3060\u3044", "name:ja_rm": "N\u014dkendai", "name:ko": "\ub178\ucf04\ub2e4\uc774", "operator": "\u4eac\u6d5c\u6025\u884c\u96fb\u9244 (Keikyu Corporation)", "operator:en": "Keikyu Corporation", "operator:ja": "\u4eac\u6d5c\u6025\u884c\u96fb\u9244", "public_transport": "station", "railway": "station", "ref": "KK48", "source": "Bing", "source_ref": "http://nlftp.mlit.go.jp/ksj/jpgis/datalist/KsjTmplt-N02-v1_1.html", "wikidata": "Q7071606", "wikipedia": "ja:\u80fd\u898b\u53f0\u99c5"}}, {"type": "node", "id": 7967959831, "lat": 35.466292, "lon": 139.6220811, "tags": {"name": "\u6a2a\u6d5c", "name:en": "Yokohama", "name:es": "Yokohama", "name:ja": "\u6a2a\u6d5c", "name:ja-Hira": "\u3088\u3053\u306f\u307e", "name:ja_rm": "Yokohama", "network": "\u307f\u306a\u3068\u307f\u3089\u3044\u7dda;\u6771\u6025\u96fb\u9244", "public_transport": "station", "railway": "station", "ref": "MM01;TY21", "source": "KSJ2", "source_ref": "http://nlftp.mlit.go.jp/ksj/jpgis/datalist/KsjTmplt-N02-v1_1.html"}}, {"type": "node", "id": 8026383420, "lat": 35.4974338, "lon": 139.6957044, "tags": {"name": "\u6d45\u91ce", "name:en": "Asano", "name:ja": "\u6d45\u91ce", "name:ja_kana": "\u3042\u3055\u306e", "name:ja_rm": "Asano", "name:ko": "\uc544\uc0ac\ub178", "operator": "\u6771\u65e5\u672c\u65c5\u5ba2\u9244\u9053", "public_transport": "station", "railway": "station", "wikidata": "Q4803534", "wikipedia": "ja:\u6d45\u91ce\u99c5"}}, {"type": "node", "id": 8026383421, "lat": 35.4996481, "lon": 139.7008868, "tags": {"name": "\u5b89\u5584", "name:en": "Anzen", "name:ja": "\u5b89\u5584", "name:ja_kana": "\u3042\u3093\u305c\u3093", "name:ja_rm": "Anzen", "name:ko": "\uc548\uc820", "operator": "\u6771\u65e5\u672c\u65c5\u5ba2\u9244\u9053", "public_transport": "station", "railway": "station", "train": "yes", "wikidata": "Q1581479", "wikipedia": "ja:\u5b89\u5584\u99c5"}}, {"type": "node", "id": 8026383422, "lat": 35.5018116, "lon": 139.7062924, "tags": {"name": "\u6b66\u8535\u767d\u77f3", "name:en": "Musashi-Shiraishi", "name:ja": "\u6b66\u8535\u767d\u77f3", "name:ja_kana": "\u3080\u3055\u3057\u3057\u3089\u3044\u3057", "name:ja_rm": "Musashi-shiraishi", "name:ko": "\ubb34\uc0ac\uc2dc\uc2dc\ub77c\uc774\uc2dc", "operator": "\u6771\u65e5\u672c\u65c5\u5ba2\u9244\u9053", "public_transport": "station", "railway": "station", "wikidata": "Q1581531", "wikipedia": "ja:\u6b66\u8535\u767d\u77f3\u99c5"}}, {"type": "node", "id": 8026421430, "lat": 35.485904, "lon": 139.700285, "tags": {"name": "\u6d77\u829d\u6d66", "name:en": "Umi-Shibaura", "name:ja": "\u6d77\u829d\u6d66", "name:ja_kana": "\u3046\u307f\u3057\u3070\u3046\u3089", "name:ja_rm": "Umi Shibaura", "name:ko": "\uc6b0\ubbf8\uc2dc\ubc14\uc6b0\ub77c", "operator": "\u6771\u65e5\u672c\u65c5\u5ba2\u9244\u9053", "public_transport": "station", "railway": "station", "wikidata": "Q1052602", "wikipedia": "ja:\u6d77\u829d\u6d66\u99c5"}}, {"type": "node", "id": 8026421469, "lat": 35.4972947, "lon": 139.680911, "tags": {"name": "\u9db4\u898b\u5c0f\u91ce", "name:en": "Tsurumiono", "name:ja": "\u9db4\u898b\u5c0f\u91ce", "name:ja_kana": "\u3064\u308b\u307f\u304a\u306e", "name:ja_rm": "Tsurumiono", "name:ko": "\uc4f0\ub8e8\ubbf8\uc624\ub178", "operator": "\u6771\u65e5\u672c\u65c5\u5ba2\u9244\u9053", "public_transport": "station", "railway": "station", "wheelchair": "yes", "wikidata": "Q869061", "wikipedia": "ja:\u9db4\u898b\u5c0f\u91ce\u99c5"}}, {"type": "node", "id": 8026421612, "lat": 35.4954947, "lon": 139.7111242, "tags": {"name": "\u5927\u5ddd", "name:en": "Okawa", "name:ja": "\u5927\u5ddd", "name:ja_kana": "\u304a\u304a\u304b\u308f", "name:ja_rm": "\u014ckawa", "name:ko": "\uc624\uce74\uc640", "operator": "\u6771\u65e5\u672c\u65c5\u5ba2\u9244\u9053", "public_transport": "station", "railway": "station", "wikidata": "Q1581453", "wikipedia": "ja:\u5927\u5ddd\u99c5"}}, {"type": "node", "id": 8026429248, "lat": 35.4919545, "lon": 139.7000251, "tags": {"name": "\u65b0\u829d\u6d66", "name:en": "Shin-Shibaura", "name:ja": "\u65b0\u829d\u6d66", "name:ja_kana": "\u3057\u3093\u3057\u3070\u3046\u3089", "name:ja_rm": "Shin Shibaura", "name:ko": "\uc2e0\uc2dc\ubc14\uc6b0\ub77c", "operator": "\u6771\u65e5\u672c\u65c5\u5ba2\u9244\u9053", "public_transport": "station", "railway": "station", "wikidata": "Q1581516", "wikipedia": "ja:\u65b0\u829d\u6d66\u99c5"}}, {"type": "node", "id": 8026433198, "lat": 35.4957391, "lon": 139.6893894, "tags": {"name": "\u5f01\u5929\u6a4b", "name:en": "Bentembashi", "name:ja": "\u5f01\u5929\u6a4b", "name:ja_kana": "\u3079\u3093\u3066\u3093\u3070\u3057", "name:ja_rm": "Bentembashi", "name:ko": "\ubca4\ud150\ubc14\uc2dc", "operator": "\u6771\u65e5\u672c\u65c5\u5ba2\u9244\u9053", "public_transport": "station", "railway": "station", "wikidata": "Q1392590", "wikipedia": "ja:\u5f01\u5929\u6a4b\u99c5"}}, {"type": "node", "id": 8026435189, "lat": 35.5009768, "lon": 139.675399, "tags": {"name": "\u56fd\u9053", "name:en": "Kokudo", "name:ja": "\u56fd\u9053", "name:ja_kana": "\u3053\u304f\u3069\u3046", "name:ja_rm": "Kokud\u014d", "name:ko": "\uace0\ucfe0\ub3c4", "operator": "\u6771\u65e5\u672c\u65c5\u5ba2\u9244\u9053", "public_transport": "station", "railway": "station", "wikidata": "Q77872", "wikipedia": "ja:\u56fd\u9053\u99c5"}}, {"type": "node", "id": 8317640068, "lat": 35.558128, "lon": 139.4864894, "tags": {"name": "\u3053\u3069\u3082\u306e\u56fd", "name:en": "Kodomonokuni", "name:ja": "\u3053\u3069\u3082\u306e\u56fd", "name:ja_kana": "\u3053\u3069\u3082\u306e\u304f\u306b", "name:ja_rm": "Kodomonokuni", "name:ko": "\uace0\ub3c4\ubaa8\ub178\ucfe0\ub2c8", "network": "\u3053\u3069\u3082\u306e\u56fd\u7dda", "operator": "\u6771\u6025\u96fb\u9244", "public_transport": "station", "railway": "station", "ref": "KD03", "source": "KSJ2", "train": "yes", "wikidata": "Q6425421", "wikipedia": "ja:\u3053\u3069\u3082\u306e\u56fd\u99c5 (\u795e\u5948\u5ddd\u770c)"}}, {"type": "node", "id": 9908917857, "lat": 35.5312584, "lon": 139.6844443, "tags": {"railway": "train_station_entrance"}}, {"type": "node", "id": 10108140342, "lat": 35.5358452, "lon": 139.6361012, "tags": {"name": "\u65b0\u7db1\u5cf6", "name:en": "Shin-Tsunashima", "name:ja": "\u65b0\u7db1\u5cf6", "public_transport": "station", "railway": "station", "ref": "SH02", "start_date": "2023-03-18", "train": "yes", "wikidata": "Q72526734", "wikipedia": "ja:\u65b0\u7db1\u5cf6\u99c5"}}, {"type": "node", "id": 10312940095, "lat": 35.4834108, "lon": 139.5895987, "tags": {"name": "\u6a2a\u6d5c\u7fbd\u6ca2\uff08\u8ca8\uff09", "public_transport": "station", "railway": "station"}}, {"type": "node", "id": 11329681981, "lat": 35.5072282, "lon": 139.6174221, "tags": {"name": "\u65b0\u6a2a\u6d5c", "name:de": "Yokohama", "name:en": "Shin-Yokohama", "name:ja": "\u65b0\u6a2a\u6d5c", "name:ja-Hira": "\u3057\u3093\u3088\u3053\u306f\u307e", "name:ja_kana": "\u3057\u3093\u3088\u3053\u306f\u307e", "name:ja_rm": "Shin-Yokohama", "public_transport": "station", "railway": "station"}}, {"type": "node", "id": 12209234608, "lat": 35.532086, "lon": 139.4938262, "tags": {"contact:website": "https://www.tokyu.co.jp/railway/station/info/Pid=50.html", "name": "\u9577\u6d25\u7530", "name:en": "Nagatsuta", "name:ja": "\u9577\u6d25\u7530", "name:ja-Kana": "\u306a\u304c\u3064\u305f", "name:ja-Latn": "Nagatsuta", "name:ko": "\ub098\uac00\uc4f0\ub2e4", "name:ru": "\u041d\u0430\u0433\u0430\u0446\u0443\u0442\u0430", "operator": "\u6a2a\u6d5c\u9ad8\u901f\u9244\u9053", "operator:en": "Yokohama Minatomirai Railway", "operator:ja": "\u6a2a\u6d5c\u9ad8\u901f\u9244\u9053", "public_transport": "station", "railway": "station", "ref": "KD01", "source": "KSJ2", "train": "yes", "wheelchair": "yes", "wikidata": "Q801229", "wikipedia": "ja:\u9577\u6d25\u7530\u99c5"}}, {"type": "node", "id": 12209234609, "lat": 35.5319095, "lon": 139.4939318, "tags": {"contact:website": "https://www.tokyu.co.jp/railway/station/info/Pid=50.html", "name": "\u9577\u6d25\u7530", "name:en": "Nagatsuta", "name:ja": "\u9577\u6d25\u7530", "name:ja-Kana": "\u306a\u304c\u3064\u305f", "name:ja-Latn": "Nagatsuta", "name:ko": "\ub098\uac00\uc4f0\ub2e4", "name:ru": "\u041d\u0430\u0433\u0430\u0446\u0443\u0442\u0430", "operator": "\u6771\u4eac\u6025\u884c\u96fb\u9244", "operator:en": "Tokyu Corporation", "operator:ja": "\u6771\u4eac\u6025\u884c\u96fb\u9244", "public_transport": "station", "railway": "station", "ref": "DT22", "source": "KSJ2", "train": "yes", "wheelchair": "yes", "wikidata": "Q801229", "wikipedia": "ja:\u9577\u6d25\u7530\u99c5"}}, {"type": "way", "id": 183535997, "nodes": [1939348197, 1939348192, 1939348195, 1939348181, 1939348175, 1939348179, 1939348172, 1939348174, 1939348169, 1939348177, 1939348183, 1939348186, 1939348248, 1939348197], "tags": {"building": "yes", "building:levels": "1", "name": "\u8e0a\u5834\u99c5", "public_transport": "station", "railway": "station", "station": "subway", "subway": "yes"}}, {"type": "way", "id": 267917213, "nodes": [2733108868, 2733108869, 7601112409, 7601112412, 7601112411, 7601112410, 2733108870, 2733108871, 2733108868], "tags": {"building": "yes", "name": "\u7acb\u5834\u99c5", "public_transport": "station", "railway": "station", "station": "subway", "subway": "yes"}}, {"type": "way", "id": 674062129, "nodes": [6312494444, 9908917857, 6312494443, 6312494442, 6312494438, 6312494437, 6312494441, 6312494439, 6312494440, 6312494444], "tags": {"building": "train_station", "public_transport": "station", "railway": "station", "source": "GSI/KIBAN 2500; NARO", "source_ref": "http://wiki.osm.org/wiki/GSI_KIBAN", "train": "yes"}}]}